[
    {
        "Pincode":744101,
        "District":"PORT BLAIR",
        "StateName":"ANDAMAN AND NICOBAR"
    },
    {
        "Pincode":744103,
        "District":"PORT BLAIR",
        "StateName":"ANDAMAN AND NICOBAR"
    },
    {
        "Pincode":744102,
        "District":"PORT BLAIR",
        "StateName":"ANDAMAN AND NICOBAR"
    },
    {
        "Pincode":744105,
        "District":"PORT BLAIR",
        "StateName":"ANDAMAN AND NICOBAR"
    },
    {
        "Pincode":523253,
        "District":"PODILI",
        "StateName":"ANDHRA PRADESH"
    },
    {
        "Pincode":534425,
        "District":"BHIMADOLE",
        "StateName":"ANDHRA PRADESH"
    },
    {
        "Pincode":518462,
        "District":"KODUMUR",
        "StateName":"ANDHRA PRADESH"
    },
    {
        "Pincode":524142,
        "District":"KAVALI",
        "StateName":"ANDHRA PRADESH"
    },
    {
        "Pincode":533289,
        "District":"GOKAVARAM",
        "StateName":"ANDHRA PRADESH"
    },
    {
        "Pincode":516214,
        "District":"RAYACHOTI",
        "StateName":"ANDHRA PRADESH"
    },
    {
        "Pincode":517520,
        "District":"PUTTUR",
        "StateName":"ANDHRA PRADESH"
    },
    {
        "Pincode":517192,
        "District":"PILERU",
        "StateName":"ANDHRA PRADESH"
    },
    {
        "Pincode":517297,
        "District":"THAMBALLAPALLE",
        "StateName":"ANDHRA PRADESH"
    },
    {
        "Pincode":534467,
        "District":"CHINTALAPUDI",
        "StateName":"ANDHRA PRADESH"
    },
    {
        "Pincode":521229,
        "District":"MYLAVARAM",
        "StateName":"ANDHRA PRADESH"
    },
    {
        "Pincode":515812,
        "District":"URAVAKONDA",
        "StateName":"ANDHRA PRADESH"
    },
    {
        "Pincode":524226,
        "District":"UDAYAGIRI",
        "StateName":"ANDHRA PRADESH"
    },
    {
        "Pincode":533449,
        "District":"EAST GODAVARI",
        "StateName":"ANDHRA PRADESH"
    },
    {
        "Pincode":521325,
        "District":"MUDINEPALLE",
        "StateName":"ANDHRA PRADESH"
    },
    {
        "Pincode":517112,
        "District":"IRALA",
        "StateName":"ANDHRA PRADESH"
    },
    {
        "Pincode":518464,
        "District":"KODUMUR",
        "StateName":"ANDHRA PRADESH"
    },
    {
        "Pincode":534449,
        "District":"DWARAKA TIRUMALA",
        "StateName":"ANDHRA PRADESH"
    },
    {
        "Pincode":517561,
        "District":"CHANDRAGIRI",
        "StateName":"ANDHRA PRADESH"
    },
    {
        "Pincode":515425,
        "District":"SINGANAMALA",
        "StateName":"ANDHRA PRADESH"
    },
    {
        "Pincode":523331,
        "District":"MARKAPUR",
        "StateName":"ANDHRA PRADESH"
    },
    {
        "Pincode":534004,
        "District":"ELURU",
        "StateName":"ANDHRA PRADESH"
    },
    {
        "Pincode":533448,
        "District":"KAKINADA",
        "StateName":"ANDHRA PRADESH"
    },
    {
        "Pincode":535204,
        "District":"BHOGAPURAM",
        "StateName":"ANDHRA PRADESH"
    },
    {
        "Pincode":783391,
        "District":"BIJNI ",
        "StateName":"ASSAM"
    },
    {
        "Pincode":782485,
        "District":"HOJAI",
        "StateName":"ASSAM"
    },
    {
        "Pincode":786151,
        "District":"DOOM DOOMA",
        "StateName":"ASSAM"
    },
    {
        "Pincode":788119,
        "District":"SILCHAR",
        "StateName":"ASSAM"
    },
    {
        "Pincode":783129,
        "District":"LAKHIPUR-GOALPARA",
        "StateName":"ASSAM"
    },
    {
        "Pincode":782428,
        "District":"KATHIATOLI",
        "StateName":"ASSAM"
    },
    {
        "Pincode":788161,
        "District":"KATLICHERRA",
        "StateName":"ASSAM"
    },
    {
        "Pincode":782411,
        "District":"JAGIROAD",
        "StateName":"ASSAM"
    },
    {
        "Pincode":786101,
        "District":"CHABUA",
        "StateName":"ASSAM"
    },
    {
        "Pincode":788162,
        "District":"KATLICHERRA",
        "StateName":"ASSAM"
    },
    {
        "Pincode":783388,
        "District":"ABHAYAPURI",
        "StateName":"ASSAM"
    },
    {
        "Pincode":784028,
        "District":"TEZPUR",
        "StateName":"ASSAM"
    },
    {
        "Pincode":785680,
        "District":"AMGURI",
        "StateName":"ASSAM"
    },
    {
        "Pincode":787052,
        "District":"NORTH LAKHIMPUR",
        "StateName":"ASSAM"
    },
    {
        "Pincode":788815,
        "District":"KALAIN",
        "StateName":"ASSAM"
    },
    {
        "Pincode":782122,
        "District":"DHING",
        "StateName":"ASSAM"
    },
    {
        "Pincode":788101,
        "District":"LAKHIPUR-CACHAR",
        "StateName":"ASSAM"
    },
    {
        "Pincode":783335,
        "District":"AGOMANI",
        "StateName":"ASSAM"
    },
    {
        "Pincode":788720,
        "District":"KARIMGANJ",
        "StateName":"ASSAM"
    },
    {
        "Pincode":788025,
        "District":"SILCHAR",
        "StateName":"ASSAM"
    },
    {
        "Pincode":785619,
        "District":"NUMALIGARH",
        "StateName":"ASSAM"
    },
    {
        "Pincode":783349,
        "District":"BILASIPARA",
        "StateName":"ASSAM"
    },
    {
        "Pincode":783126,
        "District":"DUDHNOI",
        "StateName":"ASSAM"
    },
    {
        "Pincode":787059,
        "District":"SILAPATHAR",
        "StateName":"ASSAM"
    },
    {
        "Pincode":787023,
        "District":"NORTH LAKHIMPUR",
        "StateName":"ASSAM"
    },
    {
        "Pincode":788805,
        "District":"KALAIN",
        "StateName":"ASSAM"
    },
    {
        "Pincode":781121,
        "District":"BAIHATA",
        "StateName":"ASSAM"
    },
    {
        "Pincode":786156,
        "District":"DOOM DOOMA",
        "StateName":"ASSAM"
    },
    {
        "Pincode":788735,
        "District":"PATHARKANDI",
        "StateName":"ASSAM"
    },
    {
        "Pincode":781137,
        "District":"CHHAYAGAON",
        "StateName":"ASSAM"
    },
    {
        "Pincode":788723,
        "District":"PATHARKANDI",
        "StateName":"ASSAM"
    },
    {
        "Pincode":784514,
        "District":"KHARUPETIA",
        "StateName":"ASSAM"
    },
    {
        "Pincode":782123,
        "District":"DHING",
        "StateName":"ASSAM"
    },
    {
        "Pincode":785611,
        "District":"NUMALIGARH",
        "StateName":"ASSAM"
    },
    {
        "Pincode":786154,
        "District":"DOOM DOOMA",
        "StateName":"ASSAM"
    },
    {
        "Pincode":783125,
        "District":"DUDHNOI",
        "StateName":"ASSAM"
    },
    {
        "Pincode":783334,
        "District":"AGOMANI",
        "StateName":"ASSAM"
    },
    {
        "Pincode":787110,
        "District":"SILAPATHAR",
        "StateName":"ASSAM"
    },
    {
        "Pincode":787054,
        "District":"BIHPURIA",
        "StateName":"ASSAM"
    },
    {
        "Pincode":784149,
        "District":"DHEKIAJULI",
        "StateName":"ASSAM"
    },
    {
        "Pincode":784111,
        "District":"MAZBAT",
        "StateName":"ASSAM"
    },
    {
        "Pincode":788817,
        "District":"KALAIN",
        "StateName":"ASSAM"
    },
    {
        "Pincode":782125,
        "District":"NAGAON",
        "StateName":"ASSAM"
    },
    {
        "Pincode":782121,
        "District":"LAHARIGHAT",
        "StateName":"ASSAM"
    },
    {
        "Pincode":788701,
        "District":"KARIMGANJ",
        "StateName":"ASSAM"
    },
    {
        "Pincode":781317,
        "District":"BARPETA",
        "StateName":"ASSAM"
    },
    {
        "Pincode":788725,
        "District":"PATHARKANDI",
        "StateName":"ASSAM"
    },
    {
        "Pincode":783127,
        "District":"MANKACHER",
        "StateName":"ASSAM"
    },
    {
        "Pincode":781136,
        "District":"DHUPDHARA",
        "StateName":"ASSAM"
    },
    {
        "Pincode":785108,
        "District":"JORHAT",
        "StateName":"ASSAM"
    },
    {
        "Pincode":788150,
        "District":"HAILAKANDI",
        "StateName":"ASSAM"
    },
    {
        "Pincode":781380,
        "District":"BAIHATA",
        "StateName":"ASSAM"
    },
    {
        "Pincode":783339,
        "District":"DHUBRI",
        "StateName":"ASSAM"
    },
    {
        "Pincode":783132,
        "District":"LAKHIPUR-GOALPARA",
        "StateName":"ASSAM"
    },
    {
        "Pincode":781125,
        "District":"MIRZA",
        "StateName":"ASSAM"
    },
    {
        "Pincode":786153,
        "District":"DOOM DOOMA",
        "StateName":"ASSAM"
    },
    {
        "Pincode":784190,
        "District":"KHARUPETIA",
        "StateName":"ASSAM"
    },
    {
        "Pincode":782439,
        "District":"HOWRAGHAT",
        "StateName":"ASSAM"
    },
    {
        "Pincode":781104,
        "District":"HAJO",
        "StateName":"ASSAM"
    },
    {
        "Pincode":813103,
        "District":"BANKA",
        "StateName":"BIHAR"
    },
    {
        "Pincode":845307,
        "District":"NARKAIAGANJ",
        "StateName":"BIHAR"
    },
    {
        "Pincode":845303,
        "District":"DHAKA",
        "StateName":"BIHAR"
    },
    {
        "Pincode":847108,
        "District":"KHUTONA",
        "StateName":"BIHAR"
    },
    {
        "Pincode":843324,
        "District":"BHUTAHI",
        "StateName":"BIHAR"
    },
    {
        "Pincode":845429,
        "District":"MOTIHARI",
        "StateName":"BIHAR"
    },
    {
        "Pincode":852216,
        "District":"SAHASRA",
        "StateName":"BIHAR"
    },
    {
        "Pincode":845422,
        "District":"ARERAJ",
        "StateName":"BIHAR"
    },
    {
        "Pincode":803114,
        "District":"BIHAR SHARIF",
        "StateName":"BIHAR"
    },
    {
        "Pincode":854107,
        "District":"KATIHAR",
        "StateName":"BIHAR"
    },
    {
        "Pincode":854336,
        "District":"FORBESGANJ",
        "StateName":"BIHAR"
    },
    {
        "Pincode":845454,
        "District":"BETTIAH",
        "StateName":"BIHAR"
    },
    {
        "Pincode":821103,
        "District":"CHAINPUR",
        "StateName":"BIHAR"
    },
    {
        "Pincode":848213,
        "District":"SINGHIA",
        "StateName":"BIHAR"
    },
    {
        "Pincode":852215,
        "District":"SIMRAHI BAZAR",
        "StateName":"BIHAR"
    },
    {
        "Pincode":811303,
        "District":"CHAKAI",
        "StateName":"BIHAR"
    },
    {
        "Pincode":805122,
        "District":"RAJAULI",
        "StateName":"BIHAR"
    },
    {
        "Pincode":854103,
        "District":"KATIHAR",
        "StateName":"BIHAR"
    },
    {
        "Pincode":802129,
        "District":"DUMRAON",
        "StateName":"BIHAR"
    },
    {
        "Pincode":821301,
        "District":"DEHRI-ON-SONE",
        "StateName":"BIHAR"
    },
    {
        "Pincode":800027,
        "District":"PATNA",
        "StateName":"BIHAR"
    },
    {
        "Pincode":847240,
        "District":"JAYNAGAR",
        "StateName":"BIHAR"
    },
    {
        "Pincode":843129,
        "District":"KATRA - BH",
        "StateName":"BIHAR"
    },
    {
        "Pincode":845432,
        "District":"SAHEBGANJ - BH",
        "StateName":"BIHAR"
    },
    {
        "Pincode":847427,
        "District":"BENIPUR",
        "StateName":"BIHAR"
    },
    {
        "Pincode":821312,
        "District":"AKBARPUR",
        "StateName":"BIHAR"
    },
    {
        "Pincode":802133,
        "District":"DUMRAON",
        "StateName":"BIHAR"
    },
    {
        "Pincode":848203,
        "District":"KHAGARIA",
        "StateName":"BIHAR"
    },
    {
        "Pincode":854303,
        "District":"PURNEA",
        "StateName":"BIHAR"
    },
    {
        "Pincode":811317,
        "District":"JAMUI",
        "StateName":"BIHAR"
    },
    {
        "Pincode":852124,
        "District":"SAHASRA",
        "StateName":"BIHAR"
    },
    {
        "Pincode":847421,
        "District":"KHUTONA",
        "StateName":"BIHAR"
    },
    {
        "Pincode":852217,
        "District":"UDAKISHANGANJ",
        "StateName":"BIHAR"
    },
    {
        "Pincode":804404,
        "District":"GAYA",
        "StateName":"BIHAR"
    },
    {
        "Pincode":821305,
        "District":"DEHRI-ON-SONE",
        "StateName":"BIHAR"
    },
    {
        "Pincode":851127,
        "District":"MAJHAUL",
        "StateName":"BIHAR"
    },
    {
        "Pincode":843117,
        "District":"RUNNI",
        "StateName":"BIHAR"
    },
    {
        "Pincode":852130,
        "District":"SUPAUL",
        "StateName":"BIHAR"
    },
    {
        "Pincode":854325,
        "District":"ARARIA",
        "StateName":"BIHAR"
    },
    {
        "Pincode":855101,
        "District":"DAHIBHAT",
        "StateName":"BIHAR"
    },
    {
        "Pincode":855115,
        "District":"DAHIBHAT",
        "StateName":"BIHAR"
    },
    {
        "Pincode":843332,
        "District":"BHUTAHI",
        "StateName":"BIHAR"
    },
    {
        "Pincode":845437,
        "District":"ARERAJ",
        "StateName":"BIHAR"
    },
    {
        "Pincode":824143,
        "District":"DAUDNAGAR",
        "StateName":"BIHAR"
    },
    {
        "Pincode":824231,
        "District":"GAYA",
        "StateName":"BIHAR"
    },
    {
        "Pincode":824111,
        "District":"NABINAGAR",
        "StateName":"BIHAR"
    },
    {
        "Pincode":803202,
        "District":"PATNA",
        "StateName":"BIHAR"
    },
    {
        "Pincode":824232,
        "District":"WAZIRGANJ",
        "StateName":"BIHAR"
    },
    {
        "Pincode":811302,
        "District":"LAKHISARAI",
        "StateName":"BIHAR"
    },
    {
        "Pincode":804419,
        "District":"ARWAL",
        "StateName":"BIHAR"
    },
    {
        "Pincode":843312,
        "District":"RUNNI",
        "StateName":"BIHAR"
    },
    {
        "Pincode":804451,
        "District":"MASHAURHI",
        "StateName":"BIHAR"
    },
    {
        "Pincode":813222,
        "District":"KAHALGAON",
        "StateName":"BIHAR"
    },
    {
        "Pincode":804403,
        "District":"TEKARI",
        "StateName":"BIHAR"
    },
    {
        "Pincode":854335,
        "District":"FORBESGANJ",
        "StateName":"BIHAR"
    },
    {
        "Pincode":803107,
        "District":"BIHAR SHARIF",
        "StateName":"BIHAR"
    },
    {
        "Pincode":852202,
        "District":"SAHASRA",
        "StateName":"BIHAR"
    },
    {
        "Pincode":852112,
        "District":"TRIVENIGANJ",
        "StateName":"BIHAR"
    },
    {
        "Pincode":847401,
        "District":"KHUTONA",
        "StateName":"BIHAR"
    },
    {
        "Pincode":821310,
        "District":"BIKRAMGANJ",
        "StateName":"BIHAR"
    },
    {
        "Pincode":802215,
        "District":"DINARA",
        "StateName":"BIHAR"
    },
    {
        "Pincode":854102,
        "District":"BANMANKHI",
        "StateName":"BIHAR"
    },
    {
        "Pincode":802112,
        "District":"BIHIA",
        "StateName":"BIHAR"
    },
    {
        "Pincode":843316,
        "District":"RUNNI",
        "StateName":"BIHAR"
    },
    {
        "Pincode":802207,
        "District":"JAGDISHPUR",
        "StateName":"BIHAR"
    },
    {
        "Pincode":852214,
        "District":"TRIVENIGANJ",
        "StateName":"BIHAR"
    },
    {
        "Pincode":824203,
        "District":"TEKARI",
        "StateName":"BIHAR"
    },
    {
        "Pincode":852114,
        "District":"MADHEPURA",
        "StateName":"BIHAR"
    },
    {
        "Pincode":855105,
        "District":"BAISI",
        "StateName":"BIHAR"
    },
    {
        "Pincode":854114,
        "District":"FALKA",
        "StateName":"BIHAR"
    },
    {
        "Pincode":845426,
        "District":"CHAKIA",
        "StateName":"BIHAR"
    },
    {
        "Pincode":805126,
        "District":"RAJAULI",
        "StateName":"BIHAR"
    },
    {
        "Pincode":821113,
        "District":"SASARAM",
        "StateName":"BIHAR"
    },
    {
        "Pincode":801305,
        "District":"CHANDI",
        "StateName":"BIHAR"
    },
    {
        "Pincode":824112,
        "District":"DEHRI-ON-SONE",
        "StateName":"BIHAR"
    },
    {
        "Pincode":852108,
        "District":"SUPAUL",
        "StateName":"BIHAR"
    },
    {
        "Pincode":821106,
        "District":"CHAINPUR",
        "StateName":"BIHAR"
    },
    {
        "Pincode":843128,
        "District":"MUZAFFARPUR",
        "StateName":"BIHAR"
    },
    {
        "Pincode":843321,
        "District":"KATRA - BH",
        "StateName":"BIHAR"
    },
    {
        "Pincode":845302,
        "District":"MOTIHARI",
        "StateName":"BIHAR"
    },
    {
        "Pincode":841205,
        "District":"EKMA",
        "StateName":"BIHAR"
    },
    {
        "Pincode":805127,
        "District":"RAJAULI",
        "StateName":"BIHAR"
    },
    {
        "Pincode":843113,
        "District":"MUZAFFARPUR",
        "StateName":"BIHAR"
    },
    {
        "Pincode":821102,
        "District":"CHAINPUR",
        "StateName":"BIHAR"
    },
    {
        "Pincode":847408,
        "District":"JHANJHARPUR",
        "StateName":"BIHAR"
    },
    {
        "Pincode":854317,
        "District":"BARSOI",
        "StateName":"BIHAR"
    },
    {
        "Pincode":844125,
        "District":"BHAGWANPUR",
        "StateName":"BIHAR"
    },
    {
        "Pincode":805130,
        "District":"NAWADA",
        "StateName":"BIHAR"
    },
    {
        "Pincode":854304,
        "District":"PURNEA",
        "StateName":"BIHAR"
    },
    {
        "Pincode":854327,
        "District":"PURNEA",
        "StateName":"BIHAR"
    },
    {
        "Pincode":854329,
        "District":"ARARIA",
        "StateName":"BIHAR"
    },
    {
        "Pincode":805104,
        "District":"NAWADA",
        "StateName":"BIHAR"
    },
    {
        "Pincode":852129,
        "District":"SIMRI BAKHTIYARPUR",
        "StateName":"BIHAR"
    },
    {
        "Pincode":848208,
        "District":"RUSERA",
        "StateName":"BIHAR"
    },
    {
        "Pincode":854331,
        "District":"FORBESGANJ",
        "StateName":"BIHAR"
    },
    {
        "Pincode":845103,
        "District":"LAURIYA",
        "StateName":"BIHAR"
    },
    {
        "Pincode":813101,
        "District":"BANKA",
        "StateName":"BIHAR"
    },
    {
        "Pincode":805131,
        "District":"WAZIRGANJ",
        "StateName":"BIHAR"
    },
    {
        "Pincode":854315,
        "District":"BAISI",
        "StateName":"BIHAR"
    },
    {
        "Pincode":854330,
        "District":"PURNEA",
        "StateName":"BIHAR"
    },
    {
        "Pincode":855117,
        "District":"THAKURGANJ",
        "StateName":"BIHAR"
    },
    {
        "Pincode":821304,
        "District":"AKBARPUR",
        "StateName":"BIHAR"
    },
    {
        "Pincode":852221,
        "District":"SIMRI BAKHTIYARPUR",
        "StateName":"BIHAR"
    },
    {
        "Pincode":821111,
        "District":"SASARAM",
        "StateName":"BIHAR"
    },
    {
        "Pincode":843119,
        "District":"DHOLI",
        "StateName":"BIHAR"
    },
    {
        "Pincode":804402,
        "District":"ARWAL",
        "StateName":"BIHAR"
    },
    {
        "Pincode":805124,
        "District":"NAWADA",
        "StateName":"BIHAR"
    },
    {
        "Pincode":805128,
        "District":"WAZIRGANJ",
        "StateName":"BIHAR"
    },
    {
        "Pincode":843105,
        "District":"DHOLI",
        "StateName":"BIHAR"
    },
    {
        "Pincode":845411,
        "District":"ARERAJ",
        "StateName":"BIHAR"
    },
    {
        "Pincode":813106,
        "District":"KATORIA",
        "StateName":"BIHAR"
    },
    {
        "Pincode":845106,
        "District":"NARKAIAGANJ",
        "StateName":"BIHAR"
    },
    {
        "Pincode":845304,
        "District":"DHAKA",
        "StateName":"BIHAR"
    },
    {
        "Pincode":843110,
        "District":"MAHUA",
        "StateName":"BIHAR"
    },
    {
        "Pincode":803116,
        "District":"RAJGIR",
        "StateName":"BIHAR"
    },
    {
        "Pincode":823003,
        "District":"GAYA",
        "StateName":"BIHAR"
    },
    {
        "Pincode":802201,
        "District":"ARRAH",
        "StateName":"BIHAR"
    },
    {
        "Pincode":805109,
        "District":"RAJGIR",
        "StateName":"BIHAR"
    },
    {
        "Pincode":852138,
        "District":"SUPAUL",
        "StateName":"BIHAR"
    },
    {
        "Pincode":855114,
        "District":"KATIHAR",
        "StateName":"BIHAR"
    },
    {
        "Pincode":854108,
        "District":"FALKA",
        "StateName":"BIHAR"
    },
    {
        "Pincode":804417,
        "District":"JEHANABAD",
        "StateName":"BIHAR"
    },
    {
        "Pincode":854333,
        "District":"ARARIA",
        "StateName":"BIHAR"
    },
    {
        "Pincode":845306,
        "District":"NARKAIAGANJ",
        "StateName":"BIHAR"
    },
    {
        "Pincode":843114,
        "District":"DHOLI",
        "StateName":"BIHAR"
    },
    {
        "Pincode":803117,
        "District":"RAJGIR",
        "StateName":"BIHAR"
    },
    {
        "Pincode":852161,
        "District":"SIMRI BAKHTIYARPUR",
        "StateName":"BIHAR"
    },
    {
        "Pincode":843314,
        "District":"SITAMARHI",
        "StateName":"BIHAR"
    },
    {
        "Pincode":843111,
        "District":"MOTIPUR",
        "StateName":"BIHAR"
    },
    {
        "Pincode":855113,
        "District":"BARSOI",
        "StateName":"BIHAR"
    },
    {
        "Pincode":497220,
        "District":"RAMANUJGANJ",
        "StateName":"CHHATTISGARH"
    },
    {
        "Pincode":497101,
        "District":"BATAULI",
        "StateName":"CHHATTISGARH"
    },
    {
        "Pincode":496336,
        "District":"KUSMI-CG",
        "StateName":"CHHATTISGARH"
    },
    {
        "Pincode":493116,
        "District":"TILDA",
        "StateName":"CHHATTISGARH"
    },
    {
        "Pincode":494221,
        "District":"JAGDALPUR",
        "StateName":"CHHATTISGARH"
    },
    {
        "Pincode":497225,
        "District":"WADAFNAGAR",
        "StateName":"CHHATTISGARH"
    },
    {
        "Pincode":497331,
        "District":"BHAIYATHAN",
        "StateName":"CHHATTISGARH"
    },
    {
        "Pincode":497778,
        "District":"BHARATPUR",
        "StateName":"CHHATTISGARH"
    },
    {
        "Pincode":110073,
        "District":"DELHI",
        "StateName":"DELHI"
    },
    {
        "Pincode":110090,
        "District":"DELHI",
        "StateName":"DELHI"
    },
    {
        "Pincode":110055,
        "District":"DELHI",
        "StateName":"DELHI"
    },
    {
        "Pincode":110053,
        "District":"DELHI",
        "StateName":"DELHI"
    },
    {
        "Pincode":370405,
        "District":"MUNDRA",
        "StateName":"GUJARAT"
    },
    {
        "Pincode":385575,
        "District":"VAV",
        "StateName":"GUJARAT"
    },
    {
        "Pincode":364260,
        "District":"PALITANA",
        "StateName":"GUJARAT"
    },
    {
        "Pincode":361120,
        "District":"JAMNAGAR",
        "StateName":"GUJARAT"
    },
    {
        "Pincode":360405,
        "District":"DHORAJI",
        "StateName":"GUJARAT"
    },
    {
        "Pincode":391243,
        "District":"KARJAN",
        "StateName":"GUJARAT"
    },
    {
        "Pincode":387510,
        "District":"MEHMEDABAD",
        "StateName":"GUJARAT"
    },
    {
        "Pincode":382433,
        "District":"MEHMEDABAD",
        "StateName":"GUJARAT"
    },
    {
        "Pincode":363530,
        "District":"CHOTILA",
        "StateName":"GUJARAT"
    },
    {
        "Pincode":388625,
        "District":"KHAMBHAT",
        "StateName":"GUJARAT"
    },
    {
        "Pincode":365650,
        "District":"SAVARKUNDLA",
        "StateName":"GUJARAT"
    },
    {
        "Pincode":383270,
        "District":"KHEDBRAHMA",
        "StateName":"GUJARAT"
    },
    {
        "Pincode":391430,
        "District":"JAMBUSAR",
        "StateName":"GUJARAT"
    },
    {
        "Pincode":387540,
        "District":"MEHMEDABAD",
        "StateName":"GUJARAT"
    },
    {
        "Pincode":383350,
        "District":"MODASA",
        "StateName":"GUJARAT"
    },
    {
        "Pincode":389382,
        "District":"LIMKHEDA",
        "StateName":"GUJARAT"
    },
    {
        "Pincode":383310,
        "District":"BAYAD",
        "StateName":"GUJARAT"
    },
    {
        "Pincode":390017,
        "District":"BARODA",
        "StateName":"GUJARAT"
    },
    {
        "Pincode":360579,
        "District":"PORBANDAR",
        "StateName":"GUJARAT"
    },
    {
        "Pincode":382260,
        "District":"BAVLA",
        "StateName":"GUJARAT"
    },
    {
        "Pincode":360025,
        "District":"JASDAN",
        "StateName":"GUJARAT"
    },
    {
        "Pincode":389152,
        "District":"DAHOD",
        "StateName":"GUJARAT"
    },
    {
        "Pincode":387530,
        "District":"MEHMEDABAD",
        "StateName":"GUJARAT"
    },
    {
        "Pincode":382150,
        "District":"VIRAMGAM",
        "StateName":"GUJARAT"
    },
    {
        "Pincode":394315,
        "District":"BARDOLI",
        "StateName":"GUJARAT"
    },
    {
        "Pincode":389180,
        "District":"JHALOD",
        "StateName":"GUJARAT"
    },
    {
        "Pincode":365480,
        "District":"VADIA",
        "StateName":"GUJARAT"
    },
    {
        "Pincode":391770,
        "District":"SAVLI",
        "StateName":"GUJARAT"
    },
    {
        "Pincode":364240,
        "District":"BHAVNAGAR",
        "StateName":"GUJARAT"
    },
    {
        "Pincode":362140,
        "District":"TALALA",
        "StateName":"GUJARAT"
    },
    {
        "Pincode":370155,
        "District":"RAPAR",
        "StateName":"GUJARAT"
    },
    {
        "Pincode":362268,
        "District":"VERAVAL",
        "StateName":"GUJARAT"
    },
    {
        "Pincode":393135,
        "District":"MANGAROL",
        "StateName":"GUJARAT"
    },
    {
        "Pincode":385350,
        "District":"SANTALPUR",
        "StateName":"GUJARAT"
    },
    {
        "Pincode":391510,
        "District":"HALOL",
        "StateName":"GUJARAT"
    },
    {
        "Pincode":370445,
        "District":"MANDVI",
        "StateName":"GUJARAT"
    },
    {
        "Pincode":370485,
        "District":"MANDVI",
        "StateName":"GUJARAT"
    },
    {
        "Pincode":385540,
        "District":"DEESA",
        "StateName":"GUJARAT"
    },
    {
        "Pincode":385310,
        "District":"DHANERA",
        "StateName":"GUJARAT"
    },
    {
        "Pincode":388260,
        "District":"VIRPUR",
        "StateName":"GUJARAT"
    },
    {
        "Pincode":396215,
        "District":"VAPI",
        "StateName":"GUJARAT"
    },
    {
        "Pincode":389210,
        "District":"GODHRA",
        "StateName":"GUJARAT"
    },
    {
        "Pincode":388520,
        "District":"BORSAD",
        "StateName":"GUJARAT"
    },
    {
        "Pincode":382240,
        "District":"BAGODARA",
        "StateName":"GUJARAT"
    },
    {
        "Pincode":383235,
        "District":"KHEDBRAHMA",
        "StateName":"GUJARAT"
    },
    {
        "Pincode":362255,
        "District":"VERAVAL",
        "StateName":"GUJARAT"
    },
    {
        "Pincode":382225,
        "District":"BAVLA",
        "StateName":"GUJARAT"
    },
    {
        "Pincode":394115,
        "District":"ANKLESHWAR",
        "StateName":"GUJARAT"
    },
    {
        "Pincode":385545,
        "District":"DHANERA",
        "StateName":"GUJARAT"
    },
    {
        "Pincode":384285,
        "District":"PATAN-GJ",
        "StateName":"GUJARAT"
    },
    {
        "Pincode":362020,
        "District":"BHESAN",
        "StateName":"GUJARAT"
    },
    {
        "Pincode":389120,
        "District":"GODHRA",
        "StateName":"GUJARAT"
    },
    {
        "Pincode":389320,
        "District":"HALOL",
        "StateName":"GUJARAT"
    },
    {
        "Pincode":364510,
        "District":"GARIADHAR",
        "StateName":"GUJARAT"
    },
    {
        "Pincode":363440,
        "District":"CHOTILA",
        "StateName":"GUJARAT"
    },
    {
        "Pincode":388180,
        "District":"TARAPUR",
        "StateName":"GUJARAT"
    },
    {
        "Pincode":360590,
        "District":"SODHANA",
        "StateName":"GUJARAT"
    },
    {
        "Pincode":365440,
        "District":"DHARI",
        "StateName":"GUJARAT"
    },
    {
        "Pincode":382321,
        "District":"DEHGAM",
        "StateName":"GUJARAT"
    },
    {
        "Pincode":364060,
        "District":"BHAVNAGAR",
        "StateName":"GUJARAT"
    },
    {
        "Pincode":364270,
        "District":"PALITANA",
        "StateName":"GUJARAT"
    },
    {
        "Pincode":385566,
        "District":"VAV",
        "StateName":"GUJARAT"
    },
    {
        "Pincode":389154,
        "District":"DAHOD",
        "StateName":"GUJARAT"
    },
    {
        "Pincode":382422,
        "District":"GANDHI NAGAR",
        "StateName":"GUJARAT"
    },
    {
        "Pincode":396560,
        "District":"BILIMORA",
        "StateName":"GUJARAT"
    },
    {
        "Pincode":394110,
        "District":"KIM",
        "StateName":"GUJARAT"
    },
    {
        "Pincode":389310,
        "District":"HALOL",
        "StateName":"GUJARAT"
    },
    {
        "Pincode":391780,
        "District":"SAVLI",
        "StateName":"GUJARAT"
    },
    {
        "Pincode":370150,
        "District":"BACHAU",
        "StateName":"GUJARAT"
    },
    {
        "Pincode":370145,
        "District":"BACHAU",
        "StateName":"GUJARAT"
    },
    {
        "Pincode":382265,
        "District":"BAGODARA",
        "StateName":"GUJARAT"
    },
    {
        "Pincode":382460,
        "District":"DHANDHUKA",
        "StateName":"GUJARAT"
    },
    {
        "Pincode":394170,
        "District":"KIM",
        "StateName":"GUJARAT"
    },
    {
        "Pincode":131304,
        "District":"GOHANA",
        "StateName":"HARYANA"
    },
    {
        "Pincode":122107,
        "District":"NUH",
        "StateName":"HARYANA"
    },
    {
        "Pincode":124201,
        "District":"JHAJJAR",
        "StateName":"HARYANA"
    },
    {
        "Pincode":122414,
        "District":"PATAUDI",
        "StateName":"HARYANA"
    },
    {
        "Pincode":121004,
        "District":"FARIDABAD",
        "StateName":"HARYANA"
    },
    {
        "Pincode":121105,
        "District":"PALWAL",
        "StateName":"HARYANA"
    },
    {
        "Pincode":136117,
        "District":"KAITHAL",
        "StateName":"HARYANA"
    },
    {
        "Pincode":122108,
        "District":"NUH",
        "StateName":"HARYANA"
    },
    {
        "Pincode":121101,
        "District":"FARIDABAD",
        "StateName":"HARYANA"
    },
    {
        "Pincode":136044,
        "District":"ASANDH",
        "StateName":"HARYANA"
    },
    {
        "Pincode":122508,
        "District":"HODAL",
        "StateName":"HARYANA"
    },
    {
        "Pincode":121103,
        "District":"PALWAL",
        "StateName":"HARYANA"
    },
    {
        "Pincode":124142,
        "District":"CHARKHI DADRI",
        "StateName":"HARYANA"
    },
    {
        "Pincode":121107,
        "District":"HODAL",
        "StateName":"HARYANA"
    },
    {
        "Pincode":123412,
        "District":"REWARI",
        "StateName":"HARYANA"
    },
    {
        "Pincode":125201,
        "District":"KALANWALI",
        "StateName":"HARYANA"
    },
    {
        "Pincode":121106,
        "District":"HODAL",
        "StateName":"HARYANA"
    },
    {
        "Pincode":127025,
        "District":"BHIWANI",
        "StateName":"HARYANA"
    },
    {
        "Pincode":131102,
        "District":"SONIPAT",
        "StateName":"HARYANA"
    },
    {
        "Pincode":124412,
        "District":"ROHTAK",
        "StateName":"HARYANA"
    },
    {
        "Pincode":121102,
        "District":"PALWAL",
        "StateName":"HARYANA"
    },
    {
        "Pincode":124504,
        "District":"JHAJJAR",
        "StateName":"HARYANA"
    },
    {
        "Pincode":132157,
        "District":"KARNAL",
        "StateName":"HARYANA"
    },
    {
        "Pincode":135101,
        "District":"YAMUNA NAGAR",
        "StateName":"HARYANA"
    },
    {
        "Pincode":124202,
        "District":"JHAJJAR",
        "StateName":"HARYANA"
    },
    {
        "Pincode":123303,
        "District":"KOSLI",
        "StateName":"HARYANA"
    },
    {
        "Pincode":127035,
        "District":"TOSHAM",
        "StateName":"HARYANA"
    },
    {
        "Pincode":121009,
        "District":"FARIDABAD",
        "StateName":"HARYANA"
    },
    {
        "Pincode":122104,
        "District":"NUH",
        "StateName":"HARYANA"
    },
    {
        "Pincode":124111,
        "District":"MAHAM",
        "StateName":"HARYANA"
    },
    {
        "Pincode":175029,
        "District":"Chachyot",
        "StateName":"HIMACHAL PRADESH"
    },
    {
        "Pincode":193121,
        "District":"PATTAN",
        "StateName":"JAMMU AND KASHMIR"
    },
    {
        "Pincode":185121,
        "District":"SURANKOTE",
        "StateName":"JAMMU AND KASHMIR"
    },
    {
        "Pincode":184142,
        "District":"KATHUA",
        "StateName":"JAMMU AND KASHMIR"
    },
    {
        "Pincode":194101,
        "District":"Leh",
        "StateName":"JAMMU AND KASHMIR"
    },
    {
        "Pincode":193223,
        "District":"Srinagar",
        "StateName":"JAMMU AND KASHMIR"
    },
    {
        "Pincode":193222,
        "District":"KUPWARA",
        "StateName":"JAMMU AND KASHMIR"
    },
    {
        "Pincode":182201,
        "District":"Doda",
        "StateName":"JAMMU AND KASHMIR"
    },
    {
        "Pincode":192306,
        "District":"PULWAMA",
        "StateName":"JAMMU AND KASHMIR"
    },
    {
        "Pincode":193303,
        "District":"BARAMULLA",
        "StateName":"JAMMU AND KASHMIR"
    },
    {
        "Pincode":192303,
        "District":"SHOPIAN",
        "StateName":"JAMMU AND KASHMIR"
    },
    {
        "Pincode":182145,
        "District":"RAMBAN",
        "StateName":"JAMMU AND KASHMIR"
    },
    {
        "Pincode":193302,
        "District":"BARAMULLA",
        "StateName":"JAMMU AND KASHMIR"
    },
    {
        "Pincode":185202,
        "District":"Rajouri",
        "StateName":"JAMMU AND KASHMIR"
    },
    {
        "Pincode":191202,
        "District":"GANDERBAL",
        "StateName":"JAMMU AND KASHMIR"
    },
    {
        "Pincode":192202,
        "District":"ANANTNAG",
        "StateName":"JAMMU AND KASHMIR"
    },
    {
        "Pincode":193224,
        "District":"KUPWARA",
        "StateName":"JAMMU AND KASHMIR"
    },
    {
        "Pincode":191131,
        "District":"GANDERBAL",
        "StateName":"JAMMU AND KASHMIR"
    },
    {
        "Pincode":193122,
        "District":"BARAMULLA",
        "StateName":"JAMMU AND KASHMIR"
    },
    {
        "Pincode":193411,
        "District":"BUDGAM",
        "StateName":"JAMMU AND KASHMIR"
    },
    {
        "Pincode":182144,
        "District":"RAMBAN",
        "StateName":"JAMMU AND KASHMIR"
    },
    {
        "Pincode":185111,
        "District":"POONCH",
        "StateName":"JAMMU AND KASHMIR"
    },
    {
        "Pincode":193402,
        "District":"NARBAL",
        "StateName":"JAMMU AND KASHMIR"
    },
    {
        "Pincode":185102,
        "District":"POONCH",
        "StateName":"JAMMU AND KASHMIR"
    },
    {
        "Pincode":193123,
        "District":"BARAMULLA",
        "StateName":"JAMMU AND KASHMIR"
    },
    {
        "Pincode":184148,
        "District":"KATHUA",
        "StateName":"JAMMU AND KASHMIR"
    },
    {
        "Pincode":193201,
        "District":"SOPORE",
        "StateName":"JAMMU AND KASHMIR"
    },
    {
        "Pincode":185211,
        "District":"Poonch",
        "StateName":"JAMMU AND KASHMIR"
    },
    {
        "Pincode":193504,
        "District":"Bandipora",
        "StateName":"JAMMU AND KASHMIR"
    },
    {
        "Pincode":193501,
        "District":"Bandipora",
        "StateName":"JAMMU AND KASHMIR"
    },
    {
        "Pincode":192302,
        "District":"SHOPIAN",
        "StateName":"JAMMU AND KASHMIR"
    },
    {
        "Pincode":835301,
        "District":"BERO",
        "StateName":"JHARKHAND"
    },
    {
        "Pincode":829101,
        "District":"RAMGARH",
        "StateName":"JHARKHAND"
    },
    {
        "Pincode":815315,
        "District":"JAMUA",
        "StateName":"JHARKHAND"
    },
    {
        "Pincode":825321,
        "District":"BARKAGAON",
        "StateName":"JHARKHAND"
    },
    {
        "Pincode":822132,
        "District":"GARHWA",
        "StateName":"JHARKHAND"
    },
    {
        "Pincode":822102,
        "District":"MEDININAGAR",
        "StateName":"JHARKHAND"
    },
    {
        "Pincode":825311,
        "District":"BARKAGAON",
        "StateName":"JHARKHAND"
    },
    {
        "Pincode":835202,
        "District":"BERO",
        "StateName":"JHARKHAND"
    },
    {
        "Pincode":822113,
        "District":"TARHASI",
        "StateName":"JHARKHAND"
    },
    {
        "Pincode":833220,
        "District":"KHARSAWAN",
        "StateName":"JHARKHAND"
    },
    {
        "Pincode":815318,
        "District":"JAMUA",
        "StateName":"JHARKHAND"
    },
    {
        "Pincode":835205,
        "District":"RANCHI",
        "StateName":"JHARKHAND"
    },
    {
        "Pincode":825302,
        "District":"HAZARIBAGH",
        "StateName":"JHARKHAND"
    },
    {
        "Pincode":814160,
        "District":"MERHMA",
        "StateName":"JHARKHAND"
    },
    {
        "Pincode":825418,
        "District":"MARKACHO",
        "StateName":"JHARKHAND"
    },
    {
        "Pincode":825322,
        "District":"BAGODAR",
        "StateName":"JHARKHAND"
    },
    {
        "Pincode":828301,
        "District":"DHANBAD",
        "StateName":"JHARKHAND"
    },
    {
        "Pincode":822123,
        "District":"MEDININAGAR",
        "StateName":"JHARKHAND"
    },
    {
        "Pincode":825408,
        "District":"CHOUPARAN",
        "StateName":"JHARKHAND"
    },
    {
        "Pincode":825401,
        "District":"CHATRA",
        "StateName":"JHARKHAND"
    },
    {
        "Pincode":825108,
        "District":"GIRIDIH",
        "StateName":"JHARKHAND"
    },
    {
        "Pincode":828101,
        "District":"DHANBAD",
        "StateName":"JHARKHAND"
    },
    {
        "Pincode":815316,
        "District":"GIRIDIH",
        "StateName":"JHARKHAND"
    },
    {
        "Pincode":829110,
        "District":"PETERWAR",
        "StateName":"JHARKHAND"
    },
    {
        "Pincode":822110,
        "District":"MEDININAGAR",
        "StateName":"JHARKHAND"
    },
    {
        "Pincode":833219,
        "District":"KHARSAWAN",
        "StateName":"JHARKHAND"
    },
    {
        "Pincode":822126,
        "District":"LATEHAR",
        "StateName":"JHARKHAND"
    },
    {
        "Pincode":825103,
        "District":"CHATRA",
        "StateName":"JHARKHAND"
    },
    {
        "Pincode":825412,
        "District":"JAMUA",
        "StateName":"JHARKHAND"
    },
    {
        "Pincode":825403,
        "District":"CHATRA",
        "StateName":"JHARKHAND"
    },
    {
        "Pincode":835203,
        "District":"BERO",
        "StateName":"JHARKHAND"
    },
    {
        "Pincode":835325,
        "District":"LOHARDAGA",
        "StateName":"JHARKHAND"
    },
    {
        "Pincode":825109,
        "District":"MARKACHO",
        "StateName":"JHARKHAND"
    },
    {
        "Pincode":829107,
        "District":"GUMIA",
        "StateName":"JHARKHAND"
    },
    {
        "Pincode":835103,
        "District":"RANCHI",
        "StateName":"JHARKHAND"
    },
    {
        "Pincode":833216,
        "District":"KHARSAWAN",
        "StateName":"JHARKHAND"
    },
    {
        "Pincode":829111,
        "District":"GUMIA",
        "StateName":"JHARKHAND"
    },
    {
        "Pincode":825407,
        "District":"MARKACHO",
        "StateName":"JHARKHAND"
    },
    {
        "Pincode":825319,
        "District":"HAZARIBAGH",
        "StateName":"JHARKHAND"
    },
    {
        "Pincode":825318,
        "District":"MARKACHO",
        "StateName":"JHARKHAND"
    },
    {
        "Pincode":835206,
        "District":"CHAINPUR",
        "StateName":"JHARKHAND"
    },
    {
        "Pincode":584127,
        "District":"LINGASUGUR",
        "StateName":"KARNATAKA"
    },
    {
        "Pincode":581109,
        "District":"HIREKERUR",
        "StateName":"KARNATAKA"
    },
    {
        "Pincode":585221,
        "District":"YADAGIRI TALUKU",
        "StateName":"KARNATAKA"
    },
    {
        "Pincode":561211,
        "District":"GAURIBIDANUR",
        "StateName":"KARNATAKA"
    },
    {
        "Pincode":585236,
        "District":"ALAND",
        "StateName":"KARNATAKA"
    },
    {
        "Pincode":563127,
        "District":"MULABAGILU",
        "StateName":"KARNATAKA"
    },
    {
        "Pincode":571125,
        "District":"H.D.KOTE",
        "StateName":"KARNATAKA"
    },
    {
        "Pincode":585412,
        "District":"HUMNABAD",
        "StateName":"KARNATAKA"
    },
    {
        "Pincode":581325,
        "District":"DANDELI",
        "StateName":"KARNATAKA"
    },
    {
        "Pincode":585313,
        "District":"GULBARGA",
        "StateName":"KARNATAKA"
    },
    {
        "Pincode":585311,
        "District":"ALAND",
        "StateName":"KARNATAKA"
    },
    {
        "Pincode":586112,
        "District":"BIJAPUR",
        "StateName":"KARNATAKA"
    },
    {
        "Pincode":583131,
        "District":"HARPANAHALLI",
        "StateName":"KARNATAKA"
    },
    {
        "Pincode":580011,
        "District":"DHARWAD",
        "StateName":"KARNATAKA"
    },
    {
        "Pincode":583226,
        "District":"KOPPAL",
        "StateName":"KARNATAKA"
    },
    {
        "Pincode":571121,
        "District":"H.D.KOTE",
        "StateName":"KARNATAKA"
    },
    {
        "Pincode":591128,
        "District":"BELGAUM",
        "StateName":"KARNATAKA"
    },
    {
        "Pincode":585215,
        "District":"SHORAPUR",
        "StateName":"KARNATAKA"
    },
    {
        "Pincode":586114,
        "District":"BIJAPUR",
        "StateName":"KARNATAKA"
    },
    {
        "Pincode":585329,
        "District":"HUMNABAD",
        "StateName":"KARNATAKA"
    },
    {
        "Pincode":585416,
        "District":"BASAVAKALYAN",
        "StateName":"KARNATAKA"
    },
    {
        "Pincode":563133,
        "District":"KOLAR",
        "StateName":"KARNATAKA"
    },
    {
        "Pincode":585265,
        "District":"AFZALPUR",
        "StateName":"KARNATAKA"
    },
    {
        "Pincode":583232,
        "District":"YELBURGA",
        "StateName":"KARNATAKA"
    },
    {
        "Pincode":586130,
        "District":"BIJAPUR",
        "StateName":"KARNATAKA"
    },
    {
        "Pincode":583125,
        "District":"HARPANAHALLI",
        "StateName":"KARNATAKA"
    },
    {
        "Pincode":563126,
        "District":"KOLAR",
        "StateName":"KARNATAKA"
    },
    {
        "Pincode":585330,
        "District":"HUMNABAD",
        "StateName":"KARNATAKA"
    },
    {
        "Pincode":577133,
        "District":"CHICKAMAGALUR",
        "StateName":"KARNATAKA"
    },
    {
        "Pincode":584124,
        "District":"LINGASUGUR",
        "StateName":"KARNATAKA"
    },
    {
        "Pincode":585419,
        "District":"BASAVAKALYAN",
        "StateName":"KARNATAKA"
    },
    {
        "Pincode":583223,
        "District":"HOSPET",
        "StateName":"KARNATAKA"
    },
    {
        "Pincode":563128,
        "District":"CHINTAMANI",
        "StateName":"KARNATAKA"
    },
    {
        "Pincode":585213,
        "District":"GULBARGA",
        "StateName":"KARNATAKA"
    },
    {
        "Pincode":577225,
        "District":"SHIKARIPURA",
        "StateName":"KARNATAKA"
    },
    {
        "Pincode":586117,
        "District":"INDI",
        "StateName":"KARNATAKA"
    },
    {
        "Pincode":585306,
        "District":"CHINCHOLI",
        "StateName":"KARNATAKA"
    },
    {
        "Pincode":573102,
        "District":"ARKALGUD",
        "StateName":"KARNATAKA"
    },
    {
        "Pincode":591235,
        "District":"RAIBAG",
        "StateName":"KARNATAKA"
    },
    {
        "Pincode":585305,
        "District":"CHINCHOLI",
        "StateName":"KARNATAKA"
    },
    {
        "Pincode":586202,
        "District":"SINDAGI",
        "StateName":"KARNATAKA"
    },
    {
        "Pincode":591217,
        "District":"RAIBAG",
        "StateName":"KARNATAKA"
    },
    {
        "Pincode":584120,
        "District":"LINGASUGUR",
        "StateName":"KARNATAKA"
    },
    {
        "Pincode":585437,
        "District":"BASAVAKALYAN",
        "StateName":"KARNATAKA"
    },
    {
        "Pincode":560045,
        "District":"BENGALURU",
        "StateName":"KARNATAKA"
    },
    {
        "Pincode":582201,
        "District":"GADAG",
        "StateName":"KARNATAKA"
    },
    {
        "Pincode":583238,
        "District":"KOPPAL",
        "StateName":"KARNATAKA"
    },
    {
        "Pincode":572141,
        "District":"PAVAGADA",
        "StateName":"KARNATAKA"
    },
    {
        "Pincode":571426,
        "District":"KRISHNARAJPET",
        "StateName":"KARNATAKA"
    },
    {
        "Pincode":585417,
        "District":"BHALKI",
        "StateName":"KARNATAKA"
    },
    {
        "Pincode":577516,
        "District":"DAVANGERE",
        "StateName":"KARNATAKA"
    },
    {
        "Pincode":577552,
        "District":"CHANNAGIRI",
        "StateName":"KARNATAKA"
    },
    {
        "Pincode":586115,
        "District":"SINDAGI",
        "StateName":"KARNATAKA"
    },
    {
        "Pincode":585216,
        "District":"SHORAPUR",
        "StateName":"KARNATAKA"
    },
    {
        "Pincode":585218,
        "District":"WADI",
        "StateName":"KARNATAKA"
    },
    {
        "Pincode":591114,
        "District":"NARGUND",
        "StateName":"KARNATAKA"
    },
    {
        "Pincode":586119,
        "District":"BIJAPUR",
        "StateName":"KARNATAKA"
    },
    {
        "Pincode":585290,
        "District":"SHORAPUR",
        "StateName":"KARNATAKA"
    },
    {
        "Pincode":586125,
        "District":"KOLHAR",
        "StateName":"KARNATAKA"
    },
    {
        "Pincode":563137,
        "District":"MALUR",
        "StateName":"KARNATAKA"
    },
    {
        "Pincode":584125,
        "District":"LINGASUGUR",
        "StateName":"KARNATAKA"
    },
    {
        "Pincode":585421,
        "District":"AURAD",
        "StateName":"KARNATAKA"
    },
    {
        "Pincode":585309,
        "District":"SHAHAPUR",
        "StateName":"KARNATAKA"
    },
    {
        "Pincode":562126,
        "District":"KANAKPURA",
        "StateName":"KARNATAKA"
    },
    {
        "Pincode":585316,
        "District":"GULBARGA",
        "StateName":"KARNATAKA"
    },
    {
        "Pincode":571114,
        "District":"H.D.KOTE",
        "StateName":"KARNATAKA"
    },
    {
        "Pincode":563132,
        "District":"MULABAGILU",
        "StateName":"KARNATAKA"
    },
    {
        "Pincode":585331,
        "District":"HUMNABAD",
        "StateName":"KARNATAKA"
    },
    {
        "Pincode":670502,
        "District":"Taliparamba",
        "StateName":"KERALA"
    },
    {
        "Pincode":673513,
        "District":"Perambra",
        "StateName":"KERALA"
    },
    {
        "Pincode":685561,
        "District":"Adimali",
        "StateName":"KERALA"
    },
    {
        "Pincode":685565,
        "District":"MUNNAR",
        "StateName":"KERALA"
    },
    {
        "Pincode":680518,
        "District":"KUNNAMKULAM",
        "StateName":"KERALA"
    },
    {
        "Pincode":670602,
        "District":"KANNUR",
        "StateName":"KERALA"
    },
    {
        "Pincode":671552,
        "District":"KASARAGOD",
        "StateName":"KERALA"
    },
    {
        "Pincode":671321,
        "District":"KASARAGOD",
        "StateName":"KERALA"
    },
    {
        "Pincode":670601,
        "District":"KANNUR",
        "StateName":"KERALA"
    },
    {
        "Pincode":194104,
        "District":"LEH",
        "StateName":"LADAKH"
    },
    {
        "Pincode":464886,
        "District":"SILWANI",
        "StateName":"MADHYA PRADESH"
    },
    {
        "Pincode":476339,
        "District":"SHEOPUR",
        "StateName":"MADHYA PRADESH"
    },
    {
        "Pincode":486550,
        "District":"REWA",
        "StateName":"MADHYA PRADESH"
    },
    {
        "Pincode":476221,
        "District":"JOURA",
        "StateName":"MADHYA PRADESH"
    },
    {
        "Pincode":481882,
        "District":"DINDORI",
        "StateName":"MADHYA PRADESH"
    },
    {
        "Pincode":462101,
        "District":"BERASIA",
        "StateName":"MADHYA PRADESH"
    },
    {
        "Pincode":466445,
        "District":"HOSHANGABAD",
        "StateName":"MADHYA PRADESH"
    },
    {
        "Pincode":483775,
        "District":"BIJERAGHOGARH",
        "StateName":"MADHYA PRADESH"
    },
    {
        "Pincode":451331,
        "District":"BHIKANGAON",
        "StateName":"MADHYA PRADESH"
    },
    {
        "Pincode":486669,
        "District":"KUSMI-MP",
        "StateName":"MADHYA PRADESH"
    },
    {
        "Pincode":486882,
        "District":"CHITRANGI",
        "StateName":"MADHYA PRADESH"
    },
    {
        "Pincode":458558,
        "District":"SITAMAU",
        "StateName":"MADHYA PRADESH"
    },
    {
        "Pincode":470881,
        "District":"KATANGI",
        "StateName":"MADHYA PRADESH"
    },
    {
        "Pincode":454221,
        "District":"KUKSHI",
        "StateName":"MADHYA PRADESH"
    },
    {
        "Pincode":476337,
        "District":"SHEOPUR",
        "StateName":"MADHYA PRADESH"
    },
    {
        "Pincode":485775,
        "District":"RAMNAGAR-MP",
        "StateName":"MADHYA PRADESH"
    },
    {
        "Pincode":486892,
        "District":"SINGRAULI",
        "StateName":"MADHYA PRADESH"
    },
    {
        "Pincode":483001,
        "District":"JABALPUR",
        "StateName":"MADHYA PRADESH"
    },
    {
        "Pincode":486114,
        "District":"REWA",
        "StateName":"MADHYA PRADESH"
    },
    {
        "Pincode":473115,
        "District":"CHACHAURA",
        "StateName":"MADHYA PRADESH"
    },
    {
        "Pincode":466115,
        "District":"SEHORE",
        "StateName":"MADHYA PRADESH"
    },
    {
        "Pincode":486889,
        "District":"SINGRAULI",
        "StateName":"MADHYA PRADESH"
    },
    {
        "Pincode":486887,
        "District":"NAWANAGAR",
        "StateName":"MADHYA PRADESH"
    },
    {
        "Pincode":484665,
        "District":"UMARIA",
        "StateName":"MADHYA PRADESH"
    },
    {
        "Pincode":485441,
        "District":"SATNA",
        "StateName":"MADHYA PRADESH"
    },
    {
        "Pincode":458118,
        "District":"MANASA",
        "StateName":"MADHYA PRADESH"
    },
    {
        "Pincode":463106,
        "District":"BERASIA",
        "StateName":"MADHYA PRADESH"
    },
    {
        "Pincode":465697,
        "District":"SARANGPUR",
        "StateName":"MADHYA PRADESH"
    },
    {
        "Pincode":486111,
        "District":"MANGAWAN",
        "StateName":"MADHYA PRADESH"
    },
    {
        "Pincode":477445,
        "District":"MIHONA",
        "StateName":"MADHYA PRADESH"
    },
    {
        "Pincode":475001,
        "District":"DABRA-MP",
        "StateName":"MADHYA PRADESH"
    },
    {
        "Pincode":458888,
        "District":"SHAMGARH",
        "StateName":"MADHYA PRADESH"
    },
    {
        "Pincode":485221,
        "District":"BIRSINGHPUR",
        "StateName":"MADHYA PRADESH"
    },
    {
        "Pincode":481880,
        "District":"DINDORI",
        "StateName":"MADHYA PRADESH"
    },
    {
        "Pincode":457118,
        "District":"RATLAM",
        "StateName":"MADHYA PRADESH"
    },
    {
        "Pincode":471311,
        "District":"BADA MALHERA",
        "StateName":"MADHYA PRADESH"
    },
    {
        "Pincode":485115,
        "District":"REWA",
        "StateName":"MADHYA PRADESH"
    },
    {
        "Pincode":472111,
        "District":"TIKAMGARH",
        "StateName":"MADHYA PRADESH"
    },
    {
        "Pincode":464770,
        "District":"UDAIPURA",
        "StateName":"MADHYA PRADESH"
    },
    {
        "Pincode":486341,
        "District":"MAUGANJ",
        "StateName":"MADHYA PRADESH"
    },
    {
        "Pincode":476115,
        "District":"GORMI",
        "StateName":"MADHYA PRADESH"
    },
    {
        "Pincode":456443,
        "District":"MAHIDPUR",
        "StateName":"MADHYA PRADESH"
    },
    {
        "Pincode":486886,
        "District":"WAIDHAN",
        "StateName":"MADHYA PRADESH"
    },
    {
        "Pincode":455223,
        "District":"HATPIPLIYA",
        "StateName":"MADHYA PRADESH"
    },
    {
        "Pincode":484770,
        "District":"SHAHDOL",
        "StateName":"MADHYA PRADESH"
    },
    {
        "Pincode":486885,
        "District":"WAIDHAN",
        "StateName":"MADHYA PRADESH"
    },
    {
        "Pincode":481116,
        "District":"BAIHAR",
        "StateName":"MADHYA PRADESH"
    },
    {
        "Pincode":454775,
        "District":"INDORE",
        "StateName":"MADHYA PRADESH"
    },
    {
        "Pincode":484334,
        "District":"KOTMA",
        "StateName":"MADHYA PRADESH"
    },
    {
        "Pincode":454773,
        "District":"DHAR",
        "StateName":"MADHYA PRADESH"
    },
    {
        "Pincode":457114,
        "District":"RATLAM",
        "StateName":"MADHYA PRADESH"
    },
    {
        "Pincode":486223,
        "District":"TEONTHAR",
        "StateName":"MADHYA PRADESH"
    },
    {
        "Pincode":450116,
        "District":"HARSUD",
        "StateName":"MADHYA PRADESH"
    },
    {
        "Pincode":471313,
        "District":"SHAHGARH",
        "StateName":"MADHYA PRADESH"
    },
    {
        "Pincode":462036,
        "District":"BHOPAL",
        "StateName":"MADHYA PRADESH"
    },
    {
        "Pincode":477557,
        "District":"GORMI",
        "StateName":"MADHYA PRADESH"
    },
    {
        "Pincode":465689,
        "District":"ZIRAPUR",
        "StateName":"MADHYA PRADESH"
    },
    {
        "Pincode":476229,
        "District":"SABALGARH",
        "StateName":"MADHYA PRADESH"
    },
    {
        "Pincode":457222,
        "District":"JAORA",
        "StateName":"MADHYA PRADESH"
    },
    {
        "Pincode":453551,
        "District":"SANWER",
        "StateName":"MADHYA PRADESH"
    },
    {
        "Pincode":465687,
        "District":"SARANGPUR",
        "StateName":"MADHYA PRADESH"
    },
    {
        "Pincode":480224,
        "District":"AMARWARA",
        "StateName":"MADHYA PRADESH"
    },
    {
        "Pincode":451115,
        "District":"BARWAH",
        "StateName":"MADHYA PRADESH"
    },
    {
        "Pincode":471515,
        "District":"LAVKUSHNAGAR",
        "StateName":"MADHYA PRADESH"
    },
    {
        "Pincode":486123,
        "District":"MANGAWAN",
        "StateName":"MADHYA PRADESH"
    },
    {
        "Pincode":465693,
        "District":"ZIRAPUR",
        "StateName":"MADHYA PRADESH"
    },
    {
        "Pincode":488442,
        "District":"PAWAI",
        "StateName":"MADHYA PRADESH"
    },
    {
        "Pincode":470226,
        "District":"DEORI",
        "StateName":"MADHYA PRADESH"
    },
    {
        "Pincode":462037,
        "District":"BHOPAL",
        "StateName":"MADHYA PRADESH"
    },
    {
        "Pincode":454010,
        "District":"DHAR",
        "StateName":"MADHYA PRADESH"
    },
    {
        "Pincode":485226,
        "District":"BIRSINGHPUR",
        "StateName":"MADHYA PRADESH"
    },
    {
        "Pincode":454665,
        "District":"BADNAWAR",
        "StateName":"MADHYA PRADESH"
    },
    {
        "Pincode":465447,
        "District":"SUSNER",
        "StateName":"MADHYA PRADESH"
    },
    {
        "Pincode":473105,
        "District":"GUNA",
        "StateName":"MADHYA PRADESH"
    },
    {
        "Pincode":473793,
        "District":"MOHNA",
        "StateName":"MADHYA PRADESH"
    },
    {
        "Pincode":472115,
        "District":"PALERA",
        "StateName":"MADHYA PRADESH"
    },
    {
        "Pincode":488446,
        "District":"PAWAI",
        "StateName":"MADHYA PRADESH"
    },
    {
        "Pincode":453111,
        "District":"SANWER",
        "StateName":"MADHYA PRADESH"
    },
    {
        "Pincode":486666,
        "District":"MAJHOULI",
        "StateName":"MADHYA PRADESH"
    },
    {
        "Pincode":486445,
        "District":"BIRSINGHPUR",
        "StateName":"MADHYA PRADESH"
    },
    {
        "Pincode":486331,
        "District":"MAUGANJ",
        "StateName":"MADHYA PRADESH"
    },
    {
        "Pincode":480882,
        "District":"SEONI",
        "StateName":"MADHYA PRADESH"
    },
    {
        "Pincode":473670,
        "District":"PICHHORE",
        "StateName":"MADHYA PRADESH"
    },
    {
        "Pincode":486448,
        "District":"REWA",
        "StateName":"MADHYA PRADESH"
    },
    {
        "Pincode":464114,
        "District":"LATERI",
        "StateName":"MADHYA PRADESH"
    },
    {
        "Pincode":473287,
        "District":"LATERI",
        "StateName":"MADHYA PRADESH"
    },
    {
        "Pincode":480886,
        "District":"LAKHNADON",
        "StateName":"MADHYA PRADESH"
    },
    {
        "Pincode":485661,
        "District":"MAIHAR",
        "StateName":"MADHYA PRADESH"
    },
    {
        "Pincode":486881,
        "District":"CHITRANGI",
        "StateName":"MADHYA PRADESH"
    },
    {
        "Pincode":453115,
        "District":"DEPALPUR",
        "StateName":"MADHYA PRADESH"
    },
    {
        "Pincode":471105,
        "District":"KHAJURAHO",
        "StateName":"MADHYA PRADESH"
    },
    {
        "Pincode":480221,
        "District":"AMARWARA",
        "StateName":"MADHYA PRADESH"
    },
    {
        "Pincode":473770,
        "District":"BADARWAS",
        "StateName":"MADHYA PRADESH"
    },
    {
        "Pincode":481051,
        "District":"BAIHAR",
        "StateName":"MADHYA PRADESH"
    },
    {
        "Pincode":486775,
        "District":"CHURHAT",
        "StateName":"MADHYA PRADESH"
    },
    {
        "Pincode":488441,
        "District":"PAWAI",
        "StateName":"MADHYA PRADESH"
    },
    {
        "Pincode":480997,
        "District":"LAKHNADON",
        "StateName":"MADHYA PRADESH"
    },
    {
        "Pincode":454441,
        "District":"DHAR",
        "StateName":"MADHYA PRADESH"
    },
    {
        "Pincode":462038,
        "District":"BHOPAL",
        "StateName":"MADHYA PRADESH"
    },
    {
        "Pincode":476111,
        "District":"AMBAH",
        "StateName":"MADHYA PRADESH"
    },
    {
        "Pincode":457441,
        "District":"RATLAM",
        "StateName":"MADHYA PRADESH"
    },
    {
        "Pincode":473446,
        "District":"CHANDERI",
        "StateName":"MADHYA PRADESH"
    },
    {
        "Pincode":456221,
        "District":"MAHIDPUR",
        "StateName":"MADHYA PRADESH"
    },
    {
        "Pincode":465683,
        "District":"SARANGPUR",
        "StateName":"MADHYA PRADESH"
    },
    {
        "Pincode":456661,
        "District":"UJJAIN",
        "StateName":"MADHYA PRADESH"
    },
    {
        "Pincode":451449,
        "District":"THIKRI",
        "StateName":"MADHYA PRADESH"
    },
    {
        "Pincode":454774,
        "District":"BETMA",
        "StateName":"MADHYA PRADESH"
    },
    {
        "Pincode":464990,
        "District":"MANDIDEEP",
        "StateName":"MADHYA PRADESH"
    },
    {
        "Pincode":472221,
        "District":"PALERA",
        "StateName":"MADHYA PRADESH"
    },
    {
        "Pincode":473990,
        "District":"PICHHORE",
        "StateName":"MADHYA PRADESH"
    },
    {
        "Pincode":475220,
        "District":"BHITARWAR",
        "StateName":"MADHYA PRADESH"
    },
    {
        "Pincode":477660,
        "District":"GORMI",
        "StateName":"MADHYA PRADESH"
    },
    {
        "Pincode":476224,
        "District":"JOURA",
        "StateName":"MADHYA PRADESH"
    },
    {
        "Pincode":456224,
        "District":"NAGDA",
        "StateName":"MADHYA PRADESH"
    },
    {
        "Pincode":476332,
        "District":"BIJAIPUR",
        "StateName":"MADHYA PRADESH"
    },
    {
        "Pincode":461990,
        "District":"PIPARIYA",
        "StateName":"MADHYA PRADESH"
    },
    {
        "Pincode":476335,
        "District":"BIJAIPUR",
        "StateName":"MADHYA PRADESH"
    },
    {
        "Pincode":486776,
        "District":"CHURHAT",
        "StateName":"MADHYA PRADESH"
    },
    {
        "Pincode":484886,
        "District":"RAJENDRAGRAM",
        "StateName":"MADHYA PRADESH"
    },
    {
        "Pincode":450117,
        "District":"HARSUD",
        "StateName":"MADHYA PRADESH"
    },
    {
        "Pincode":454331,
        "District":"KUKSHI",
        "StateName":"MADHYA PRADESH"
    },
    {
        "Pincode":484881,
        "District":"RAJENDRAGRAM",
        "StateName":"MADHYA PRADESH"
    },
    {
        "Pincode":484771,
        "District":"BEOHARI",
        "StateName":"MADHYA PRADESH"
    },
    {
        "Pincode":486771,
        "District":"CHURHAT",
        "StateName":"MADHYA PRADESH"
    },
    {
        "Pincode":471405,
        "District":"BIJAWAR",
        "StateName":"MADHYA PRADESH"
    },
    {
        "Pincode":475330,
        "District":"MOHNA",
        "StateName":"MADHYA PRADESH"
    },
    {
        "Pincode":488220,
        "District":"CHANDLA",
        "StateName":"MADHYA PRADESH"
    },
    {
        "Pincode":456313,
        "District":"BADNAGAR",
        "StateName":"MADHYA PRADESH"
    },
    {
        "Pincode":465667,
        "District":"NARSINGHGARH",
        "StateName":"MADHYA PRADESH"
    },
    {
        "Pincode":477117,
        "District":"GOHAD",
        "StateName":"MADHYA PRADESH"
    },
    {
        "Pincode":485881,
        "District":"RAMNAGAR-MP",
        "StateName":"MADHYA PRADESH"
    },
    {
        "Pincode":477116,
        "District":"GOHAD",
        "StateName":"MADHYA PRADESH"
    },
    {
        "Pincode":451111,
        "District":"BARWAH",
        "StateName":"MADHYA PRADESH"
    },
    {
        "Pincode":455459,
        "District":"KANNOD",
        "StateName":"MADHYA PRADESH"
    },
    {
        "Pincode":486553,
        "District":"REWA",
        "StateName":"MADHYA PRADESH"
    },
    {
        "Pincode":400037,
        "District":"MUMBAI",
        "StateName":"MAHARASHTRA"
    },
    {
        "Pincode":400079,
        "District":"MUMBAI",
        "StateName":"MAHARASHTRA"
    },
    {
        "Pincode":423205,
        "District":"MALEGAON",
        "StateName":"MAHARASHTRA"
    },
    {
        "Pincode":422304,
        "District":"NIPHAD",
        "StateName":"MAHARASHTRA"
    },
    {
        "Pincode":413204,
        "District":"JAMKHED",
        "StateName":"MAHARASHTRA"
    },
    {
        "Pincode":431523,
        "District":"AMBAJOGAI",
        "StateName":"MAHARASHTRA"
    },
    {
        "Pincode":423110,
        "District":"MALEGAON",
        "StateName":"MAHARASHTRA"
    },
    {
        "Pincode":431127,
        "District":"GEVRAI",
        "StateName":"MAHARASHTRA"
    },
    {
        "Pincode":422203,
        "District":"NASIK",
        "StateName":"MAHARASHTRA"
    },
    {
        "Pincode":401204,
        "District":"KUDUS",
        "StateName":"MAHARASHTRA"
    },
    {
        "Pincode":425109,
        "District":"PAROLA",
        "StateName":"MAHARASHTRA"
    },
    {
        "Pincode":400087,
        "District":"MUMBAI",
        "StateName":"MAHARASHTRA"
    },
    {
        "Pincode":424106,
        "District":"CHALISGAON",
        "StateName":"MAHARASHTRA"
    },
    {
        "Pincode":421302,
        "District":"BHIWANDI",
        "StateName":"MAHARASHTRA"
    },
    {
        "Pincode":410205,
        "District":"ROHA",
        "StateName":"MAHARASHTRA"
    },
    {
        "Pincode":431112,
        "District":"SILLOD",
        "StateName":"MAHARASHTRA"
    },
    {
        "Pincode":423204,
        "District":"MALEGAON",
        "StateName":"MAHARASHTRA"
    },
    {
        "Pincode":415014,
        "District":"SATARA",
        "StateName":"MAHARASHTRA"
    },
    {
        "Pincode":422201,
        "District":"NASIK",
        "StateName":"MAHARASHTRA"
    },
    {
        "Pincode":431809,
        "District":"DHARMABAD",
        "StateName":"MAHARASHTRA"
    },
    {
        "Pincode":413112,
        "District":"MALSIRAS",
        "StateName":"MAHARASHTRA"
    },
    {
        "Pincode":423102,
        "District":"KALVAN",
        "StateName":"MAHARASHTRA"
    },
    {
        "Pincode":422104,
        "District":"SINNAR",
        "StateName":"MAHARASHTRA"
    },
    {
        "Pincode":431117,
        "District":"SOYGAON",
        "StateName":"MAHARASHTRA"
    },
    {
        "Pincode":422113,
        "District":"SINNAR",
        "StateName":"MAHARASHTRA"
    },
    {
        "Pincode":431104,
        "District":"KANNAD",
        "StateName":"MAHARASHTRA"
    },
    {
        "Pincode":400051,
        "District":"MUMBAI",
        "StateName":"MAHARASHTRA"
    },
    {
        "Pincode":431202,
        "District":"JALNA",
        "StateName":"MAHARASHTRA"
    },
    {
        "Pincode":423301,
        "District":"SATANA",
        "StateName":"MAHARASHTRA"
    },
    {
        "Pincode":431116,
        "District":"VAIJAPUR",
        "StateName":"MAHARASHTRA"
    },
    {
        "Pincode":431705,
        "District":"HINGOLI",
        "StateName":"MAHARASHTRA"
    },
    {
        "Pincode":412204,
        "District":"CHUFULA",
        "StateName":"MAHARASHTRA"
    },
    {
        "Pincode":415507,
        "District":"VADUJ",
        "StateName":"MAHARASHTRA"
    },
    {
        "Pincode":410406,
        "District":"KAMSHETH",
        "StateName":"MAHARASHTRA"
    },
    {
        "Pincode":423117,
        "District":"NIPHAD",
        "StateName":"MAHARASHTRA"
    },
    {
        "Pincode":444204,
        "District":"SANGRAMPUR",
        "StateName":"MAHARASHTRA"
    },
    {
        "Pincode":400017,
        "District":"MUMBAI ",
        "StateName":"MAHARASHTRA"
    },
    {
        "Pincode":412209,
        "District":"RANJANGAON",
        "StateName":"MAHARASHTRA"
    },
    {
        "Pincode":444807,
        "District":"ACHALPUR",
        "StateName":"MAHARASHTRA"
    },
    {
        "Pincode":444706,
        "District":"DARYAPUR",
        "StateName":"MAHARASHTRA"
    },
    {
        "Pincode":413301,
        "District":"MOHOL",
        "StateName":"MAHARASHTRA"
    },
    {
        "Pincode":431111,
        "District":"PHULAMBRI",
        "StateName":"MAHARASHTRA"
    },
    {
        "Pincode":413519,
        "District":"UDGIR",
        "StateName":"MAHARASHTRA"
    },
    {
        "Pincode":413505,
        "District":"KARMALA",
        "StateName":"MAHARASHTRA"
    },
    {
        "Pincode":414302,
        "District":"PARNER",
        "StateName":"MAHARASHTRA"
    },
    {
        "Pincode":413205,
        "District":"JAMKHED",
        "StateName":"MAHARASHTRA"
    },
    {
        "Pincode":424204,
        "District":"SOYGAON",
        "StateName":"MAHARASHTRA"
    },
    {
        "Pincode":423703,
        "District":"VAIJAPUR",
        "StateName":"MAHARASHTRA"
    },
    {
        "Pincode":421004,
        "District":"MUMBAI",
        "StateName":"MAHARASHTRA"
    },
    {
        "Pincode":444109,
        "District":"AKOLA",
        "StateName":"MAHARASHTRA"
    },
    {
        "Pincode":431121,
        "District":"AAMBAD",
        "StateName":"MAHARASHTRA"
    },
    {
        "Pincode":413309,
        "District":"SANGOLA",
        "StateName":"MAHARASHTRA"
    },
    {
        "Pincode":431113,
        "District":"SILLOD",
        "StateName":"MAHARASHTRA"
    },
    {
        "Pincode":423501,
        "District":"SATANA",
        "StateName":"MAHARASHTRA"
    },
    {
        "Pincode":431702,
        "District":"HINGOLI",
        "StateName":"MAHARASHTRA"
    },
    {
        "Pincode":422211,
        "District":"KALVAN",
        "StateName":"MAHARASHTRA"
    },
    {
        "Pincode":414105,
        "District":"NEVASA",
        "StateName":"MAHARASHTRA"
    },
    {
        "Pincode":400096,
        "District":"MUMBAI",
        "StateName":"MAHARASHTRA"
    },
    {
        "Pincode":422302,
        "District":"NIPHAD",
        "StateName":"MAHARASHTRA"
    },
    {
        "Pincode":400008,
        "District":"MUMBAI",
        "StateName":"MAHARASHTRA"
    },
    {
        "Pincode":400043,
        "District":"MUMBAI",
        "StateName":"MAHARASHTRA"
    },
    {
        "Pincode":431509,
        "District":"JINTUR",
        "StateName":"MAHARASHTRA"
    },
    {
        "Pincode":413305,
        "District":"PANDHARPUR",
        "StateName":"MAHARASHTRA"
    },
    {
        "Pincode":431130,
        "District":"GEVRAI",
        "StateName":"MAHARASHTRA"
    },
    {
        "Pincode":423702,
        "District":"GANGAPUR",
        "StateName":"MAHARASHTRA"
    },
    {
        "Pincode":413253,
        "District":"MOHOL",
        "StateName":"MAHARASHTRA"
    },
    {
        "Pincode":444901,
        "District":"AMRAVATI",
        "StateName":"MAHARASHTRA"
    },
    {
        "Pincode":421602,
        "District":"IGATPURI",
        "StateName":"MAHARASHTRA"
    },
    {
        "Pincode":413248,
        "District":"MOHOL",
        "StateName":"MAHARASHTRA"
    },
    {
        "Pincode":400612,
        "District":"MUMBRA",
        "StateName":"MAHARASHTRA"
    },
    {
        "Pincode":442707,
        "District":"GONDPIPARI",
        "StateName":"MAHARASHTRA"
    },
    {
        "Pincode":400031,
        "District":"MUMBAI",
        "StateName":"MAHARASHTRA"
    },
    {
        "Pincode":431105,
        "District":"AURANGABAD - MH",
        "StateName":"MAHARASHTRA"
    },
    {
        "Pincode":431109,
        "District":"GANGAPUR",
        "StateName":"MAHARASHTRA"
    },
    {
        "Pincode":422204,
        "District":"NASIK",
        "StateName":"MAHARASHTRA"
    },
    {
        "Pincode":416209,
        "District":"GARGOTI",
        "StateName":"MAHARASHTRA"
    },
    {
        "Pincode":431807,
        "District":"MUDKHED",
        "StateName":"MAHARASHTRA"
    },
    {
        "Pincode":444003,
        "District":"AKOLA",
        "StateName":"MAHARASHTRA"
    },
    {
        "Pincode":431151,
        "District":"PHULAMBRI",
        "StateName":"MAHARASHTRA"
    },
    {
        "Pincode":410510,
        "District":"RAJGURUNAGAR",
        "StateName":"MAHARASHTRA"
    },
    {
        "Pincode":444107,
        "District":"MURTIJAPUR",
        "StateName":"MAHARASHTRA"
    },
    {
        "Pincode":431209,
        "District":"AAMBAD",
        "StateName":"MAHARASHTRA"
    },
    {
        "Pincode":445301,
        "District":"GHATANJI",
        "StateName":"MAHARASHTRA"
    },
    {
        "Pincode":431204,
        "District":"AAMBAD",
        "StateName":"MAHARASHTRA"
    },
    {
        "Pincode":414204,
        "District":"PATODA",
        "StateName":"MAHARASHTRA"
    },
    {
        "Pincode":414201,
        "District":"AHMEDNAGAR",
        "StateName":"MAHARASHTRA"
    },
    {
        "Pincode":400707,
        "District":"URAN",
        "StateName":"MAHARASHTRA"
    },
    {
        "Pincode":431147,
        "District":"KANNAD",
        "StateName":"MAHARASHTRA"
    },
    {
        "Pincode":422212,
        "District":"NASIK",
        "StateName":"MAHARASHTRA"
    },
    {
        "Pincode":425426,
        "District":"NAVAPUR",
        "StateName":"MAHARASHTRA"
    },
    {
        "Pincode":421311,
        "District":"BHIWANDI",
        "StateName":"MAHARASHTRA"
    },
    {
        "Pincode":400097,
        "District":"MUMBAI",
        "StateName":"MAHARASHTRA"
    },
    {
        "Pincode":431501,
        "District":"PARTUR",
        "StateName":"MAHARASHTRA"
    },
    {
        "Pincode":414203,
        "District":"JAMKHED",
        "StateName":"MAHARASHTRA"
    },
    {
        "Pincode":425111,
        "District":"PAROLA",
        "StateName":"MAHARASHTRA"
    },
    {
        "Pincode":423212,
        "District":"MALEGAON",
        "StateName":"MAHARASHTRA"
    },
    {
        "Pincode":413703,
        "District":"SHRIGONDA",
        "StateName":"MAHARASHTRA"
    },
    {
        "Pincode":431126,
        "District":"PATODA",
        "StateName":"MAHARASHTRA"
    },
    {
        "Pincode":431134,
        "District":"PHULAMBRI",
        "StateName":"MAHARASHTRA"
    },
    {
        "Pincode":443206,
        "District":"DEOLGAON RAJA",
        "StateName":"MAHARASHTRA"
    },
    {
        "Pincode":431132,
        "District":"SILLOD",
        "StateName":"MAHARASHTRA"
    },
    {
        "Pincode":442606,
        "District":"KURKHERA",
        "StateName":"MAHARASHTRA"
    },
    {
        "Pincode":442704,
        "District":"AHIRI",
        "StateName":"MAHARASHTRA"
    },
    {
        "Pincode":413802,
        "District":"DAUND",
        "StateName":"MAHARASHTRA"
    },
    {
        "Pincode":400072,
        "District":"MUMBAI",
        "StateName":"MAHARASHTRA"
    },
    {
        "Pincode":414102,
        "District":"PATHARDI",
        "StateName":"MAHARASHTRA"
    },
    {
        "Pincode":422103,
        "District":"SINNAR",
        "StateName":"MAHARASHTRA"
    },
    {
        "Pincode":412220,
        "District":"RANJANGAON",
        "StateName":"MAHARASHTRA"
    },
    {
        "Pincode":422208,
        "District":"DINDORI MH",
        "StateName":"MAHARASHTRA"
    },
    {
        "Pincode":413201,
        "District":"JAMKHED",
        "StateName":"MAHARASHTRA"
    },
    {
        "Pincode":431143,
        "District":"GEVRAI",
        "StateName":"MAHARASHTRA"
    },
    {
        "Pincode":431135,
        "District":"SILLOD",
        "StateName":"MAHARASHTRA"
    },
    {
        "Pincode":410208,
        "District":"KAMOTHE",
        "StateName":"MAHARASHTRA"
    },
    {
        "Pincode":431519,
        "District":"AMBAJOGAI",
        "StateName":"MAHARASHTRA"
    },
    {
        "Pincode":423502,
        "District":"KALVAN",
        "StateName":"MAHARASHTRA"
    },
    {
        "Pincode":413315,
        "District":"PANDHARPUR",
        "StateName":"MAHARASHTRA"
    },
    {
        "Pincode":431213,
        "District":"JALNA",
        "StateName":"MAHARASHTRA"
    },
    {
        "Pincode":413319,
        "District":"PANDHARPUR",
        "StateName":"MAHARASHTRA"
    },
    {
        "Pincode":431133,
        "District":"AURANGABAD - MH",
        "StateName":"MAHARASHTRA"
    },
    {
        "Pincode":422210,
        "District":"SINNAR",
        "StateName":"MAHARASHTRA"
    },
    {
        "Pincode":414202,
        "District":"JAMKHED",
        "StateName":"MAHARASHTRA"
    },
    {
        "Pincode":416211,
        "District":"GARGOTI",
        "StateName":"MAHARASHTRA"
    },
    {
        "Pincode":400010,
        "District":"MUMBAI",
        "StateName":"MAHARASHTRA"
    },
    {
        "Pincode":431128,
        "District":"PARLI VAIJNATH",
        "StateName":"MAHARASHTRA"
    },
    {
        "Pincode":431510,
        "District":"JINTUR",
        "StateName":"MAHARASHTRA"
    },
    {
        "Pincode":400095,
        "District":"MUMBAI",
        "StateName":"MAHARASHTRA"
    },
    {
        "Pincode":425306,
        "District":"RAVER",
        "StateName":"MAHARASHTRA"
    },
    {
        "Pincode":431208,
        "District":"DEOLGAON RAJA",
        "StateName":"MAHARASHTRA"
    },
    {
        "Pincode":400076,
        "District":"MUMBAI",
        "StateName":"MAHARASHTRA"
    },
    {
        "Pincode":414208,
        "District":"JAMKHED",
        "StateName":"MAHARASHTRA"
    },
    {
        "Pincode":414304,
        "District":"PARNER",
        "StateName":"MAHARASHTRA"
    },
    {
        "Pincode":424119,
        "District":"CHALISGAON",
        "StateName":"MAHARASHTRA"
    },
    {
        "Pincode":425310,
        "District":"BHUSAWAL",
        "StateName":"MAHARASHTRA"
    },
    {
        "Pincode":444401,
        "District":"AKOLA",
        "StateName":"MAHARASHTRA"
    },
    {
        "Pincode":422606,
        "District":"SINNAR",
        "StateName":"MAHARASHTRA"
    },
    {
        "Pincode":424302,
        "District":"DHULE",
        "StateName":"MAHARASHTRA"
    },
    {
        "Pincode":794104,
        "District":"Fekamari",
        "StateName":"MEGHALAYA"
    },
    {
        "Pincode":758018,
        "District":"KENDUJHARGARH",
        "StateName":"ODISHA"
    },
    {
        "Pincode":762002,
        "District":"PHULBANI",
        "StateName":"ODISHA"
    },
    {
        "Pincode":761118,
        "District":"BUGUDA",
        "StateName":"ODISHA"
    },
    {
        "Pincode":756171,
        "District":"BASUDEBPUR",
        "StateName":"ODISHA"
    },
    {
        "Pincode":761027,
        "District":"CHHATRAPUR",
        "StateName":"ODISHA"
    },
    {
        "Pincode":754032,
        "District":"BADAMBA",
        "StateName":"ODISHA"
    },
    {
        "Pincode":770019,
        "District":"SUNDERGARH",
        "StateName":"ODISHA"
    },
    {
        "Pincode":752017,
        "District":"KHORDHA",
        "StateName":"ODISHA"
    },
    {
        "Pincode":752021,
        "District":"RANPUR",
        "StateName":"ODISHA"
    },
    {
        "Pincode":764037,
        "District":"KORAPUT",
        "StateName":"ODISHA"
    },
    {
        "Pincode":768039,
        "District":"PADMAPUR",
        "StateName":"ODISHA"
    },
    {
        "Pincode":770039,
        "District":"ROURKELA",
        "StateName":"ODISHA"
    },
    {
        "Pincode":770014,
        "District":"SUBDEGA",
        "StateName":"ODISHA"
    },
    {
        "Pincode":769007,
        "District":"ROURKELA",
        "StateName":"ODISHA"
    },
    {
        "Pincode":764087,
        "District":"KALIMELA",
        "StateName":"ODISHA"
    },
    {
        "Pincode":770033,
        "District":"BIRMITRAPUR",
        "StateName":"ODISHA"
    },
    {
        "Pincode":758020,
        "District":"ANANDAPUR",
        "StateName":"ODISHA"
    },
    {
        "Pincode":752065,
        "District":"RANPUR",
        "StateName":"ODISHA"
    },
    {
        "Pincode":770036,
        "District":"ROURKELA",
        "StateName":"ODISHA"
    },
    {
        "Pincode":754035,
        "District":"BADAMBA",
        "StateName":"ODISHA"
    },
    {
        "Pincode":770035,
        "District":"BIRMITRAPUR",
        "StateName":"ODISHA"
    },
    {
        "Pincode":764051,
        "District":"BALIMELA",
        "StateName":"ODISHA"
    },
    {
        "Pincode":761119,
        "District":"BHANJANAGAR",
        "StateName":"ODISHA"
    },
    {
        "Pincode":761016,
        "District":"MOHANA",
        "StateName":"ODISHA"
    },
    {
        "Pincode":605109,
        "District":"MARAKANAM",
        "StateName":"PONDICHERRY"
    },
    {
        "Pincode":140119,
        "District":"ANANDPUR SAHIB",
        "StateName":"PUNJAB"
    },
    {
        "Pincode":144628,
        "District":"SULTANPUR LODHI",
        "StateName":"PUNJAB"
    },
    {
        "Pincode":143606,
        "District":"MAJITHA",
        "StateName":"PUNJAB"
    },
    {
        "Pincode":144418,
        "District":"PHILLAUR",
        "StateName":"PUNJAB"
    },
    {
        "Pincode":144626,
        "District":"SULTANPUR LODHI",
        "StateName":"PUNJAB"
    },
    {
        "Pincode":143502,
        "District":"BATALA",
        "StateName":"PUNJAB"
    },
    {
        "Pincode":147021,
        "District":"PATIALA",
        "StateName":"PUNJAB"
    },
    {
        "Pincode":144606,
        "District":"SULTANPUR LODHI",
        "StateName":"PUNJAB"
    },
    {
        "Pincode":152024,
        "District":"JALALABAD",
        "StateName":"PUNJAB"
    },
    {
        "Pincode":151509,
        "District":"MAUR",
        "StateName":"PUNJAB"
    },
    {
        "Pincode":140702,
        "District":"PATIALA",
        "StateName":"PUNJAB"
    },
    {
        "Pincode":141411,
        "District":"MANDIGOBINDGARH",
        "StateName":"PUNJAB"
    },
    {
        "Pincode":141123,
        "District":"SAHNEWAL",
        "StateName":"PUNJAB"
    },
    {
        "Pincode":144620,
        "District":"KAPURTHALA",
        "StateName":"PUNJAB"
    },
    {
        "Pincode":143603,
        "District":"DERA BABA NANAK",
        "StateName":"PUNJAB"
    },
    {
        "Pincode":144221,
        "District":"DASUYA",
        "StateName":"PUNJAB"
    },
    {
        "Pincode":144416,
        "District":"PHILLAUR",
        "StateName":"PUNJAB"
    },
    {
        "Pincode":143419,
        "District":"BIKKIWIND",
        "StateName":"PUNJAB"
    },
    {
        "Pincode":141801,
        "District":"SAMRALA",
        "StateName":"PUNJAB"
    },
    {
        "Pincode":143406,
        "District":"TARN TARAN",
        "StateName":"PUNJAB"
    },
    {
        "Pincode":152032,
        "District":"MUKTSAR",
        "StateName":"PUNJAB"
    },
    {
        "Pincode":141017,
        "District":"LUDHIANA",
        "StateName":"PUNJAB"
    },
    {
        "Pincode":147103,
        "District":"PATIALA",
        "StateName":"PUNJAB"
    },
    {
        "Pincode":145026,
        "District":"PATHANKOT",
        "StateName":"PUNJAB"
    },
    {
        "Pincode":144105,
        "District":"HOSHIARPUR",
        "StateName":"PUNJAB"
    },
    {
        "Pincode":141416,
        "District":"PAYAL",
        "StateName":"PUNJAB"
    },
    {
        "Pincode":151210,
        "District":"MALOUT",
        "StateName":"PUNJAB"
    },
    {
        "Pincode":151111,
        "District":"RAMPURA PHUL",
        "StateName":"PUNJAB"
    },
    {
        "Pincode":141117,
        "District":"PAYAL",
        "StateName":"PUNJAB"
    },
    {
        "Pincode":141007,
        "District":"LUDHIANA",
        "StateName":"PUNJAB"
    },
    {
        "Pincode":140501,
        "District":"DERA BASSI",
        "StateName":"PUNJAB"
    },
    {
        "Pincode":143107,
        "District":"AMRITSAR",
        "StateName":"PUNJAB"
    },
    {
        "Pincode":144625,
        "District":"KAPURTHALA",
        "StateName":"PUNJAB"
    },
    {
        "Pincode":146111,
        "District":"HOSHIARPUR",
        "StateName":"PUNJAB"
    },
    {
        "Pincode":141414,
        "District":"PAYAL",
        "StateName":"PUNJAB"
    },
    {
        "Pincode":143416,
        "District":"PATTI",
        "StateName":"PUNJAB"
    },
    {
        "Pincode":144801,
        "District":"KAPURTHALA",
        "StateName":"PUNJAB"
    },
    {
        "Pincode":141014,
        "District":"LUDHIANA",
        "StateName":"PUNJAB"
    },
    {
        "Pincode":143108,
        "District":"AMRITSAR",
        "StateName":"PUNJAB"
    },
    {
        "Pincode":301411,
        "District":"TIJARA",
        "StateName":"RAJASTHAN"
    },
    {
        "Pincode":335523,
        "District":"NOHAR",
        "StateName":"RAJASTHAN"
    },
    {
        "Pincode":333028,
        "District":"KHETRI",
        "StateName":"RAJASTHAN"
    },
    {
        "Pincode":322230,
        "District":"HINDAUN",
        "StateName":"RAJASTHAN"
    },
    {
        "Pincode":327801,
        "District":"SAJJANGARH",
        "StateName":"RAJASTHAN"
    },
    {
        "Pincode":327027,
        "District":"GHATOL",
        "StateName":"RAJASTHAN"
    },
    {
        "Pincode":301405,
        "District":"TIJARA",
        "StateName":"RAJASTHAN"
    },
    {
        "Pincode":301030,
        "District":"ALWAR",
        "StateName":"RAJASTHAN"
    },
    {
        "Pincode":321203,
        "District":"DEEG",
        "StateName":"RAJASTHAN"
    },
    {
        "Pincode":335707,
        "District":"ANUPGARH",
        "StateName":"RAJASTHAN"
    },
    {
        "Pincode":303804,
        "District":"CHOMU",
        "StateName":"RAJASTHAN"
    },
    {
        "Pincode":335051,
        "District":"RAISINGHNAGAR",
        "StateName":"RAJASTHAN"
    },
    {
        "Pincode":303003,
        "District":"VIRATNAGAR",
        "StateName":"RAJASTHAN"
    },
    {
        "Pincode":333504,
        "District":"KHETRI",
        "StateName":"RAJASTHAN"
    },
    {
        "Pincode":335002,
        "District":"SRIGANGANAGAR",
        "StateName":"RAJASTHAN"
    },
    {
        "Pincode":303509,
        "District":"MAHWA",
        "StateName":"RAJASTHAN"
    },
    {
        "Pincode":303301,
        "District":"BASSI",
        "StateName":"RAJASTHAN"
    },
    {
        "Pincode":344701,
        "District":"SHEO",
        "StateName":"RAJASTHAN"
    },
    {
        "Pincode":305623,
        "District":"BIJAINAGAR",
        "StateName":"RAJASTHAN"
    },
    {
        "Pincode":334305,
        "District":"KOLAYAT",
        "StateName":"RAJASTHAN"
    },
    {
        "Pincode":303903,
        "District":"CHAKSU",
        "StateName":"RAJASTHAN"
    },
    {
        "Pincode":323801,
        "District":"NAINWA",
        "StateName":"RAJASTHAN"
    },
    {
        "Pincode":311024,
        "District":"BANERA",
        "StateName":"RAJASTHAN"
    },
    {
        "Pincode":342901,
        "District":"BHOPALGARH",
        "StateName":"RAJASTHAN"
    },
    {
        "Pincode":311011,
        "District":"BHILWARA",
        "StateName":"RAJASTHAN"
    },
    {
        "Pincode":344708,
        "District":"DHORIMANA",
        "StateName":"RAJASTHAN"
    },
    {
        "Pincode":301024,
        "District":"BANSUR",
        "StateName":"RAJASTHAN"
    },
    {
        "Pincode":342802,
        "District":"LUNI",
        "StateName":"RAJASTHAN"
    },
    {
        "Pincode":321201,
        "District":"DEEG",
        "StateName":"RAJASTHAN"
    },
    {
        "Pincode":303805,
        "District":"CHOMU",
        "StateName":"RAJASTHAN"
    },
    {
        "Pincode":312604,
        "District":"BARI SADRI",
        "StateName":"RAJASTHAN"
    },
    {
        "Pincode":321408,
        "District":"BAYANA",
        "StateName":"RAJASTHAN"
    },
    {
        "Pincode":301401,
        "District":"KHAIRTAL",
        "StateName":"RAJASTHAN"
    },
    {
        "Pincode":305814,
        "District":"PARBARSAR ",
        "StateName":"RAJASTHAN"
    },
    {
        "Pincode":302029,
        "District":"JAIPUR",
        "StateName":"RAJASTHAN"
    },
    {
        "Pincode":303905,
        "District":"CHAKSU",
        "StateName":"RAJASTHAN"
    },
    {
        "Pincode":331027,
        "District":"CHURU",
        "StateName":"RAJASTHAN"
    },
    {
        "Pincode":311804,
        "District":"ASIND",
        "StateName":"RAJASTHAN"
    },
    {
        "Pincode":321602,
        "District":"BHARATPUR",
        "StateName":"RAJASTHAN"
    },
    {
        "Pincode":345021,
        "District":"POKHRAN",
        "StateName":"RAJASTHAN"
    },
    {
        "Pincode":311301,
        "District":"ASIND",
        "StateName":"RAJASTHAN"
    },
    {
        "Pincode":332708,
        "District":"NEEM KA THANA",
        "StateName":"RAJASTHAN"
    },
    {
        "Pincode":303908,
        "District":"CHAKSU",
        "StateName":"RAJASTHAN"
    },
    {
        "Pincode":343040,
        "District":"BHINMAL",
        "StateName":"RAJASTHAN"
    },
    {
        "Pincode":344044,
        "District":"BALOTRA",
        "StateName":"RAJASTHAN"
    },
    {
        "Pincode":302031,
        "District":"JAIPUR",
        "StateName":"RAJASTHAN"
    },
    {
        "Pincode":322241,
        "District":"KARAULI",
        "StateName":"RAJASTHAN"
    },
    {
        "Pincode":334302,
        "District":"KOLAYAT",
        "StateName":"RAJASTHAN"
    },
    {
        "Pincode":325601,
        "District":"SANGOD",
        "StateName":"RAJASTHAN"
    },
    {
        "Pincode":342603,
        "District":"BHOPALGARH",
        "StateName":"RAJASTHAN"
    },
    {
        "Pincode":303806,
        "District":"CHOMU",
        "StateName":"RAJASTHAN"
    },
    {
        "Pincode":303701,
        "District":"CHOMU",
        "StateName":"RAJASTHAN"
    },
    {
        "Pincode":321607,
        "District":"NAGAR",
        "StateName":"RAJASTHAN"
    },
    {
        "Pincode":301604,
        "District":"NAGAR",
        "StateName":"RAJASTHAN"
    },
    {
        "Pincode":312203,
        "District":"KAPASAN",
        "StateName":"RAJASTHAN"
    },
    {
        "Pincode":322219,
        "District":"GANGAPUR",
        "StateName":"RAJASTHAN"
    },
    {
        "Pincode":303303,
        "District":"DAUSA",
        "StateName":"RAJASTHAN"
    },
    {
        "Pincode":312202,
        "District":"KAPASAN",
        "StateName":"RAJASTHAN"
    },
    {
        "Pincode":303505,
        "District":"LALSOT",
        "StateName":"RAJASTHAN"
    },
    {
        "Pincode":301408,
        "District":"RAJGARH-RJ",
        "StateName":"RAJASTHAN"
    },
    {
        "Pincode":342303,
        "District":"OSIAN",
        "StateName":"RAJASTHAN"
    },
    {
        "Pincode":344034,
        "District":"BAYTU",
        "StateName":"RAJASTHAN"
    },
    {
        "Pincode":341514,
        "District":"MERTA",
        "StateName":"RAJASTHAN"
    },
    {
        "Pincode":342312,
        "District":"OSIAN",
        "StateName":"RAJASTHAN"
    },
    {
        "Pincode":345025,
        "District":"DECHU ",
        "StateName":"RAJASTHAN"
    },
    {
        "Pincode":343025,
        "District":"JALORE",
        "StateName":"RAJASTHAN"
    },
    {
        "Pincode":313331,
        "District":"DEVGARH",
        "StateName":"RAJASTHAN"
    },
    {
        "Pincode":341022,
        "District":"NAGAUR",
        "StateName":"RAJASTHAN"
    },
    {
        "Pincode":342308,
        "District":"PHALODI",
        "StateName":"RAJASTHAN"
    },
    {
        "Pincode":325001,
        "District":"KEWAL NAGAR",
        "StateName":"RAJASTHAN"
    },
    {
        "Pincode":328026,
        "District":"BARI",
        "StateName":"RAJASTHAN"
    },
    {
        "Pincode":328025,
        "District":"DHAULPUR",
        "StateName":"RAJASTHAN"
    },
    {
        "Pincode":303901,
        "District":"CHAKSU",
        "StateName":"RAJASTHAN"
    },
    {
        "Pincode":331811,
        "District":"SRI DUNGARGARH",
        "StateName":"RAJASTHAN"
    },
    {
        "Pincode":302022,
        "District":"JAIPUR",
        "StateName":"RAJASTHAN"
    },
    {
        "Pincode":342306,
        "District":"OSIAN",
        "StateName":"RAJASTHAN"
    },
    {
        "Pincode":303706,
        "District":"BAGRU",
        "StateName":"RAJASTHAN"
    },
    {
        "Pincode":335802,
        "District":"HANUMANGARH",
        "StateName":"RAJASTHAN"
    },
    {
        "Pincode":303012,
        "District":"BASSI",
        "StateName":"RAJASTHAN"
    },
    {
        "Pincode":304502,
        "District":"MALPURA",
        "StateName":"RAJASTHAN"
    },
    {
        "Pincode":305412,
        "District":"KEKRI",
        "StateName":"RAJASTHAN"
    },
    {
        "Pincode":332701,
        "District":"SHAHPURA-RJ",
        "StateName":"RAJASTHAN"
    },
    {
        "Pincode":303328,
        "District":"PHULERA",
        "StateName":"RAJASTHAN"
    },
    {
        "Pincode":321606,
        "District":"MAHWA",
        "StateName":"RAJASTHAN"
    },
    {
        "Pincode":306101,
        "District":"JAITARAN",
        "StateName":"RAJASTHAN"
    },
    {
        "Pincode":303704,
        "District":"CHOMU",
        "StateName":"RAJASTHAN"
    },
    {
        "Pincode":341302,
        "District":"DEGANA",
        "StateName":"RAJASTHAN"
    },
    {
        "Pincode":344037,
        "District":"BAYTU",
        "StateName":"RAJASTHAN"
    },
    {
        "Pincode":304505,
        "District":"MALPURA",
        "StateName":"RAJASTHAN"
    },
    {
        "Pincode":122105,
        "District":"BHIWADI",
        "StateName":"RAJASTHAN"
    },
    {
        "Pincode":321023,
        "District":"KAMAN",
        "StateName":"RAJASTHAN"
    },
    {
        "Pincode":303503,
        "District":"LALSOT",
        "StateName":"RAJASTHAN"
    },
    {
        "Pincode":345027,
        "District":"SHEO",
        "StateName":"RAJASTHAN"
    },
    {
        "Pincode":301021,
        "District":"ALWAR",
        "StateName":"RAJASTHAN"
    },
    {
        "Pincode":344026,
        "District":"BALESAR",
        "StateName":"RAJASTHAN"
    },
    {
        "Pincode":332024,
        "District":"SIKAR",
        "StateName":"RAJASTHAN"
    },
    {
        "Pincode":313801,
        "District":"SARADA",
        "StateName":"RAJASTHAN"
    },
    {
        "Pincode":341502,
        "District":"MAKRANA",
        "StateName":"RAJASTHAN"
    },
    {
        "Pincode":303005,
        "District":"PHAGI",
        "StateName":"RAJASTHAN"
    },
    {
        "Pincode":303305,
        "District":"BASSI",
        "StateName":"RAJASTHAN"
    },
    {
        "Pincode":301020,
        "District":"BEHROR",
        "StateName":"RAJASTHAN"
    },
    {
        "Pincode":302028,
        "District":"JAIPUR",
        "StateName":"RAJASTHAN"
    },
    {
        "Pincode":344032,
        "District":"BALOTRA",
        "StateName":"RAJASTHAN"
    },
    {
        "Pincode":303002,
        "District":"ACHROL",
        "StateName":"RAJASTHAN"
    },
    {
        "Pincode":328027,
        "District":"DHAULPUR",
        "StateName":"RAJASTHAN"
    },
    {
        "Pincode":342606,
        "District":"BHOPALGARH",
        "StateName":"RAJASTHAN"
    },
    {
        "Pincode":328021,
        "District":"BARI",
        "StateName":"RAJASTHAN"
    },
    {
        "Pincode":303712,
        "District":"REENGUS",
        "StateName":"RAJASTHAN"
    },
    {
        "Pincode":301406,
        "District":"RAJGARH-RJ",
        "StateName":"RAJASTHAN"
    },
    {
        "Pincode":342012,
        "District":"JODHPUR ",
        "StateName":"RAJASTHAN"
    },
    {
        "Pincode":301022,
        "District":"VIRATNAGAR",
        "StateName":"RAJASTHAN"
    },
    {
        "Pincode":335027,
        "District":"SRIGANGANAGAR",
        "StateName":"RAJASTHAN"
    },
    {
        "Pincode":342602,
        "District":"BILARA ",
        "StateName":"RAJASTHAN"
    },
    {
        "Pincode":341028,
        "District":"NAGAUR",
        "StateName":"RAJASTHAN"
    },
    {
        "Pincode":327034,
        "District":"BANSWARA",
        "StateName":"RAJASTHAN"
    },
    {
        "Pincode":321204,
        "District":"KAMAN",
        "StateName":"RAJASTHAN"
    },
    {
        "Pincode":302013,
        "District":"JAIPUR",
        "StateName":"RAJASTHAN"
    },
    {
        "Pincode":333033,
        "District":"PILANI",
        "StateName":"RAJASTHAN"
    },
    {
        "Pincode":328022,
        "District":"BARI",
        "StateName":"RAJASTHAN"
    },
    {
        "Pincode":332027,
        "District":"SIKAR",
        "StateName":"RAJASTHAN"
    },
    {
        "Pincode":301025,
        "District":"ALWAR",
        "StateName":"RAJASTHAN"
    },
    {
        "Pincode":334202,
        "District":"BIKANER",
        "StateName":"RAJASTHAN"
    },
    {
        "Pincode":313332,
        "District":"RAJSAMAND",
        "StateName":"RAJASTHAN"
    },
    {
        "Pincode":326037,
        "District":"AKLERA",
        "StateName":"RAJASTHAN"
    },
    {
        "Pincode":321303,
        "District":"BHARATPUR",
        "StateName":"RAJASTHAN"
    },
    {
        "Pincode":301703,
        "District":"BEHROR",
        "StateName":"RAJASTHAN"
    },
    {
        "Pincode":304024,
        "District":"NAINWA",
        "StateName":"RAJASTHAN"
    },
    {
        "Pincode":342307,
        "District":"PHALODI",
        "StateName":"RAJASTHAN"
    },
    {
        "Pincode":321404,
        "District":"BHARATPUR",
        "StateName":"RAJASTHAN"
    },
    {
        "Pincode":325004,
        "District":"MANGROL",
        "StateName":"RAJASTHAN"
    },
    {
        "Pincode":312022,
        "District":"CHITTOR GARH",
        "StateName":"RAJASTHAN"
    },
    {
        "Pincode":322214,
        "District":"GANGAPUR",
        "StateName":"RAJASTHAN"
    },
    {
        "Pincode":321302,
        "District":"BAYANA",
        "StateName":"RAJASTHAN"
    },
    {
        "Pincode":306421,
        "District":"LUNI",
        "StateName":"RAJASTHAN"
    },
    {
        "Pincode":344702,
        "District":"Chohtan",
        "StateName":"RAJASTHAN"
    },
    {
        "Pincode":344706,
        "District":"Chohtan",
        "StateName":"RAJASTHAN"
    },
    {
        "Pincode":301707,
        "District":"TIJARA",
        "StateName":"RAJASTHAN"
    },
    {
        "Pincode":334603,
        "District":"LUNKARANSAR",
        "StateName":"RAJASTHAN"
    },
    {
        "Pincode":303120,
        "District":"SHAHPURA-RJ",
        "StateName":"RAJASTHAN"
    },
    {
        "Pincode":303102,
        "District":"VIRATNAGAR",
        "StateName":"RAJASTHAN"
    },
    {
        "Pincode":342023,
        "District":"BALESAR",
        "StateName":"RAJASTHAN"
    },
    {
        "Pincode":321402,
        "District":"BAYANA",
        "StateName":"RAJASTHAN"
    },
    {
        "Pincode":344501,
        "District":"Chohtan",
        "StateName":"RAJASTHAN"
    },
    {
        "Pincode":322255,
        "District":"KARAULI",
        "StateName":"RAJASTHAN"
    },
    {
        "Pincode":334802,
        "District":"NOKHA",
        "StateName":"RAJASTHAN"
    },
    {
        "Pincode":326033,
        "District":"AKLERA",
        "StateName":"RAJASTHAN"
    },
    {
        "Pincode":303502,
        "District":"BANDIKUI",
        "StateName":"RAJASTHAN"
    },
    {
        "Pincode":323802,
        "District":"NAINWA",
        "StateName":"RAJASTHAN"
    },
    {
        "Pincode":311025,
        "District":"BHILWARA",
        "StateName":"RAJASTHAN"
    },
    {
        "Pincode":312901,
        "District":"CHITTOR GARH",
        "StateName":"RAJASTHAN"
    },
    {
        "Pincode":343022,
        "District":"JALORE",
        "StateName":"RAJASTHAN"
    },
    {
        "Pincode":305025,
        "District":"NASIRABAD",
        "StateName":"RAJASTHAN"
    },
    {
        "Pincode":343041,
        "District":"SANCHORE",
        "StateName":"RAJASTHAN"
    },
    {
        "Pincode":322702,
        "District":"SAWAI MADHOPUR",
        "StateName":"RAJASTHAN"
    },
    {
        "Pincode":303501,
        "District":"DAUSA",
        "StateName":"RAJASTHAN"
    },
    {
        "Pincode":342007,
        "District":"SHIKARGARH",
        "StateName":"RAJASTHAN"
    },
    {
        "Pincode":313804,
        "District":"DUNGARPUR",
        "StateName":"RAJASTHAN"
    },
    {
        "Pincode":321605,
        "District":"NAGAR",
        "StateName":"RAJASTHAN"
    },
    {
        "Pincode":303801,
        "District":"CHOMU",
        "StateName":"RAJASTHAN"
    },
    {
        "Pincode":333705,
        "District":"NAWALGARH",
        "StateName":"RAJASTHAN"
    },
    {
        "Pincode":344033,
        "District":"SINDHARI",
        "StateName":"RAJASTHAN"
    },
    {
        "Pincode":303007,
        "District":"BAGRU",
        "StateName":"RAJASTHAN"
    },
    {
        "Pincode":331029,
        "District":"CHURU",
        "StateName":"RAJASTHAN"
    },
    {
        "Pincode":325220,
        "District":"CHHABRA",
        "StateName":"RAJASTHAN"
    },
    {
        "Pincode":342024,
        "District":"JODHPUR ",
        "StateName":"RAJASTHAN"
    },
    {
        "Pincode":307029,
        "District":"JALORE",
        "StateName":"RAJASTHAN"
    },
    {
        "Pincode":311021,
        "District":"BIJAINAGAR",
        "StateName":"RAJASTHAN"
    },
    {
        "Pincode":323024,
        "District":"BUNDI",
        "StateName":"RAJASTHAN"
    },
    {
        "Pincode":342314,
        "District":"DECHU ",
        "StateName":"RAJASTHAN"
    },
    {
        "Pincode":342022,
        "District":"BALESAR",
        "StateName":"RAJASTHAN"
    },
    {
        "Pincode":341023,
        "District":"DIDWANA",
        "StateName":"RAJASTHAN"
    },
    {
        "Pincode":303803,
        "District":"CHOMU",
        "StateName":"RAJASTHAN"
    },
    {
        "Pincode":341513,
        "District":"PISANGAN",
        "StateName":"RAJASTHAN"
    },
    {
        "Pincode":303904,
        "District":"PHAGI",
        "StateName":"RAJASTHAN"
    },
    {
        "Pincode":334604,
        "District":"LUNKARANSAR",
        "StateName":"RAJASTHAN"
    },
    {
        "Pincode":313329,
        "District":"NATHDWARA",
        "StateName":"RAJASTHAN"
    },
    {
        "Pincode":301404,
        "District":"KHAIRTAL",
        "StateName":"RAJASTHAN"
    },
    {
        "Pincode":341021,
        "District":"NAGAUR",
        "StateName":"RAJASTHAN"
    },
    {
        "Pincode":342037,
        "District":"JODHPUR ",
        "StateName":"RAJASTHAN"
    },
    {
        "Pincode":341001,
        "District":"NAGAUR",
        "StateName":"RAJASTHAN"
    },
    {
        "Pincode":344704,
        "District":"DHORIMANA",
        "StateName":"RAJASTHAN"
    },
    {
        "Pincode":342305,
        "District":"OSIAN",
        "StateName":"RAJASTHAN"
    },
    {
        "Pincode":304802,
        "District":"DEOLI",
        "StateName":"RAJASTHAN"
    },
    {
        "Pincode":331803,
        "District":"SRI DUNGARGARH",
        "StateName":"RAJASTHAN"
    },
    {
        "Pincode":321024,
        "District":"NAGAR",
        "StateName":"RAJASTHAN"
    },
    {
        "Pincode":328024,
        "District":"DHAULPUR",
        "StateName":"RAJASTHAN"
    },
    {
        "Pincode":311302,
        "District":"ASIND",
        "StateName":"RAJASTHAN"
    },
    {
        "Pincode":333307,
        "District":"UDAIPURWATI",
        "StateName":"RAJASTHAN"
    },
    {
        "Pincode":331802,
        "District":"RATANGARH",
        "StateName":"RAJASTHAN"
    },
    {
        "Pincode":335526,
        "District":"HANUMANGARH",
        "StateName":"RAJASTHAN"
    },
    {
        "Pincode":313334,
        "District":"RAJSAMAND",
        "StateName":"RAJASTHAN"
    },
    {
        "Pincode":311401,
        "District":"BANERA",
        "StateName":"RAJASTHAN"
    },
    {
        "Pincode":345023,
        "District":"POKHRAN",
        "StateName":"RAJASTHAN"
    },
    {
        "Pincode":333053,
        "District":"UDAIPURWATI",
        "StateName":"RAJASTHAN"
    },
    {
        "Pincode":327022,
        "District":"BANSWARA",
        "StateName":"RAJASTHAN"
    },
    {
        "Pincode":321022,
        "District":"KAMAN",
        "StateName":"RAJASTHAN"
    },
    {
        "Pincode":304025,
        "District":"NIWAI",
        "StateName":"RAJASTHAN"
    },
    {
        "Pincode":313601,
        "District":"BHATEWAR",
        "StateName":"RAJASTHAN"
    },
    {
        "Pincode":322220,
        "District":"NADOTI",
        "StateName":"RAJASTHAN"
    },
    {
        "Pincode":325216,
        "District":"BARAN",
        "StateName":"RAJASTHAN"
    },
    {
        "Pincode":334303,
        "District":"KOLAYAT",
        "StateName":"RAJASTHAN"
    },
    {
        "Pincode":313022,
        "District":"BHATEWAR",
        "StateName":"RAJASTHAN"
    },
    {
        "Pincode":301028,
        "District":"ALWAR",
        "StateName":"RAJASTHAN"
    },
    {
        "Pincode":301403,
        "District":"KHAIRTAL",
        "StateName":"RAJASTHAN"
    },
    {
        "Pincode":301407,
        "District":"KHAIRTAL",
        "StateName":"RAJASTHAN"
    },
    {
        "Pincode":600060,
        "District":"CHENNAI",
        "StateName":"TAMIL NADU"
    },
    {
        "Pincode":603302,
        "District":"MADURANTHAKAM",
        "StateName":"TAMIL NADU"
    },
    {
        "Pincode":621714,
        "District":"JAYANKONDAM",
        "StateName":"TAMIL NADU"
    },
    {
        "Pincode":625503,
        "District":"MADURAI",
        "StateName":"TAMIL NADU"
    },
    {
        "Pincode":606301,
        "District":"KALLAKURICHI",
        "StateName":"TAMIL NADU"
    },
    {
        "Pincode":636303,
        "District":"METTUR",
        "StateName":"TAMIL NADU"
    },
    {
        "Pincode":607301,
        "District":"NEYVELI",
        "StateName":"TAMIL NADU"
    },
    {
        "Pincode":631402,
        "District":"TIRUVALLUR",
        "StateName":"TAMIL NADU"
    },
    {
        "Pincode":631203,
        "District":"TIRUVALLUR",
        "StateName":"TAMIL NADU"
    },
    {
        "Pincode":507165,
        "District":"WYRA",
        "StateName":"TELANGANA"
    },
    {
        "Pincode":502221,
        "District":"ZAHEERABAD",
        "StateName":"TELANGANA"
    },
    {
        "Pincode":509340,
        "District":"JADCHERLA",
        "StateName":"TELANGANA"
    },
    {
        "Pincode":508205,
        "District":"NAKREKAL",
        "StateName":"TELANGANA"
    },
    {
        "Pincode":508266,
        "District":"DEVARAKONDA",
        "StateName":"TELANGANA"
    },
    {
        "Pincode":500053,
        "District":"HYDERABAD",
        "StateName":"TELANGANA"
    },
    {
        "Pincode":500064,
        "District":"HYDERABAD",
        "StateName":"TELANGANA"
    },
    {
        "Pincode":507166,
        "District":"KOTHAGUDEM",
        "StateName":"TELANGANA"
    },
    {
        "Pincode":503212,
        "District":"ARMOOR",
        "StateName":"TELANGANA"
    },
    {
        "Pincode":509358,
        "District":"KALWAKURTHY",
        "StateName":"TELANGANA"
    },
    {
        "Pincode":508258,
        "District":"DEVARAKONDA",
        "StateName":"TELANGANA"
    },
    {
        "Pincode":504201,
        "District":"CHENNUR",
        "StateName":"TELANGANA"
    },
    {
        "Pincode":504307,
        "District":"ICHODA",
        "StateName":"TELANGANA"
    },
    {
        "Pincode":507114,
        "District":"BHADRACHALAM",
        "StateName":"TELANGANA"
    },
    {
        "Pincode":500065,
        "District":"HYDERABAD",
        "StateName":"TELANGANA"
    },
    {
        "Pincode":508246,
        "District":"HUZURNAGAR",
        "StateName":"TELANGANA"
    },
    {
        "Pincode":509132,
        "District":"IEEJA",
        "StateName":"TELANGANA"
    },
    {
        "Pincode":500006,
        "District":"HYDERABAD",
        "StateName":"TELANGANA"
    },
    {
        "Pincode":500002,
        "District":"HYDERABAD",
        "StateName":"TELANGANA"
    },
    {
        "Pincode":502306,
        "District":"SANGAREDDY",
        "StateName":"TELANGANA"
    },
    {
        "Pincode":502273,
        "District":"SANGAREDDY",
        "StateName":"TELANGANA"
    },
    {
        "Pincode":502316,
        "District":"NARSAPUR - TS",
        "StateName":"TELANGANA"
    },
    {
        "Pincode":500005,
        "District":"HYDERABAD",
        "StateName":"TELANGANA"
    },
    {
        "Pincode":799273,
        "District":"MANOGHAT",
        "StateName":"TRIPURA"
    },
    {
        "Pincode":799101,
        "District":"AMARPUR",
        "StateName":"TRIPURA"
    },
    {
        "Pincode":799271,
        "District":"KANCHANPUR",
        "StateName":"TRIPURA"
    },
    {
        "Pincode":799104,
        "District":"RSCUDAIPUR",
        "StateName":"TRIPURA"
    },
    {
        "Pincode":799131,
        "District":"MELAGHAR",
        "StateName":"TRIPURA"
    },
    {
        "Pincode":799270,
        "District":"KANCHANPUR",
        "StateName":"TRIPURA"
    },
    {
        "Pincode":244925,
        "District":"SUAR",
        "StateName":"UTTAR PRADESH"
    },
    {
        "Pincode":221306,
        "District":"MIRZAPUR",
        "StateName":"UTTAR PRADESH"
    },
    {
        "Pincode":281406,
        "District":"MATHURA",
        "StateName":"UTTAR PRADESH"
    },
    {
        "Pincode":273165,
        "District":"CAMPIERGANJ",
        "StateName":"UTTAR PRADESH"
    },
    {
        "Pincode":243505,
        "District":"BILASPUR-UP",
        "StateName":"UTTAR PRADESH"
    },
    {
        "Pincode":244222,
        "District":"AMROHA",
        "StateName":"UTTAR PRADESH"
    },
    {
        "Pincode":283124,
        "District":"KHAIRAGARH-UP",
        "StateName":"UTTAR PRADESH"
    },
    {
        "Pincode":232110,
        "District":"CHANDAULI",
        "StateName":"UTTAR PRADESH"
    },
    {
        "Pincode":244102,
        "District":"MORADABAD",
        "StateName":"UTTAR PRADESH"
    },
    {
        "Pincode":276303,
        "District":"LALGANJ-AZAMGARH",
        "StateName":"UTTAR PRADESH"
    },
    {
        "Pincode":231208,
        "District":"DUDHINAGAR",
        "StateName":"UTTAR PRADESH"
    },
    {
        "Pincode":272124,
        "District":"BASTI",
        "StateName":"UTTAR PRADESH"
    },
    {
        "Pincode":222202,
        "District":"PHOOLPUR",
        "StateName":"UTTAR PRADESH"
    },
    {
        "Pincode":209204,
        "District":"BILHAUR",
        "StateName":"UTTAR PRADESH"
    },
    {
        "Pincode":202123,
        "District":"IGLAS",
        "StateName":"UTTAR PRADESH"
    },
    {
        "Pincode":250619,
        "District":"BARAUT",
        "StateName":"UTTAR PRADESH"
    },
    {
        "Pincode":202127,
        "District":"ATRAULI",
        "StateName":"UTTAR PRADESH"
    },
    {
        "Pincode":271871,
        "District":"PAYAGPUR",
        "StateName":"UTTAR PRADESH"
    },
    {
        "Pincode":244304,
        "District":"SAMBHAL",
        "StateName":"UTTAR PRADESH"
    },
    {
        "Pincode":201206,
        "District":"MODINAGAR",
        "StateName":"UTTAR PRADESH"
    },
    {
        "Pincode":273306,
        "District":"GORAKHPUR",
        "StateName":"UTTAR PRADESH"
    },
    {
        "Pincode":250406,
        "District":"MAWANA",
        "StateName":"UTTAR PRADESH"
    },
    {
        "Pincode":202141,
        "District":"KHAIR",
        "StateName":"UTTAR PRADESH"
    },
    {
        "Pincode":261506,
        "District":"LAKHIMPUR",
        "StateName":"UTTAR PRADESH"
    },
    {
        "Pincode":247451,
        "District":"SAHARANPUR",
        "StateName":"UTTAR PRADESH"
    },
    {
        "Pincode":244501,
        "District":"KANTH",
        "StateName":"UTTAR PRADESH"
    },
    {
        "Pincode":210125,
        "District":"BABERU",
        "StateName":"UTTAR PRADESH"
    },
    {
        "Pincode":205268,
        "District":"KISHNI",
        "StateName":"UTTAR PRADESH"
    },
    {
        "Pincode":251003,
        "District":"MUZZAFARNAGAR",
        "StateName":"UTTAR PRADESH"
    },
    {
        "Pincode":205263,
        "District":"MAINPURI",
        "StateName":"UTTAR PRADESH"
    },
    {
        "Pincode":247121,
        "District":"BEHAT",
        "StateName":"UTTAR PRADESH"
    },
    {
        "Pincode":212653,
        "District":"KHAGA",
        "StateName":"UTTAR PRADESH"
    },
    {
        "Pincode":276205,
        "District":"LALGANJ-AZAMGARH",
        "StateName":"UTTAR PRADESH"
    },
    {
        "Pincode":271835,
        "District":"BAHRAICH",
        "StateName":"UTTAR PRADESH"
    },
    {
        "Pincode":209304,
        "District":"KANPUR",
        "StateName":"UTTAR PRADESH"
    },
    {
        "Pincode":283145,
        "District":"FIROZABAD",
        "StateName":"UTTAR PRADESH"
    },
    {
        "Pincode":230502,
        "District":"PRATAPGARH-UP",
        "StateName":"UTTAR PRADESH"
    },
    {
        "Pincode":204214,
        "District":"SIKANDRA RAO",
        "StateName":"UTTAR PRADESH"
    },
    {
        "Pincode":222203,
        "District":"BHADOHI",
        "StateName":"UTTAR PRADESH"
    },
    {
        "Pincode":203207,
        "District":"GREATER NOIDA",
        "StateName":"UTTAR PRADESH"
    },
    {
        "Pincode":201102,
        "District":"LONI",
        "StateName":"UTTAR PRADESH"
    },
    {
        "Pincode":201015,
        "District":"GHAZIABAD",
        "StateName":"UTTAR PRADESH"
    },
    {
        "Pincode":212303,
        "District":"MEJA ROAD",
        "StateName":"UTTAR PRADESH"
    },
    {
        "Pincode":202126,
        "District":"ALIGARH",
        "StateName":"UTTAR PRADESH"
    },
    {
        "Pincode":212213,
        "District":"CHAIL",
        "StateName":"UTTAR PRADESH"
    },
    {
        "Pincode":221706,
        "District":"RASRA",
        "StateName":"UTTAR PRADESH"
    },
    {
        "Pincode":202134,
        "District":"KASGANJ",
        "StateName":"UTTAR PRADESH"
    },
    {
        "Pincode":250103,
        "District":"MEERUT",
        "StateName":"UTTAR PRADESH"
    },
    {
        "Pincode":221502,
        "District":"HANDIA",
        "StateName":"UTTAR PRADESH"
    },
    {
        "Pincode":247778,
        "District":"SHAMLI",
        "StateName":"UTTAR PRADESH"
    },
    {
        "Pincode":245205,
        "District":"SIYANA",
        "StateName":"UTTAR PRADESH"
    },
    {
        "Pincode":283119,
        "District":"KHAIRAGARH-UP",
        "StateName":"UTTAR PRADESH"
    },
    {
        "Pincode":251203,
        "District":"MUZZAFARNAGAR",
        "StateName":"UTTAR PRADESH"
    },
    {
        "Pincode":251327,
        "District":"MUZZAFARNAGAR",
        "StateName":"UTTAR PRADESH"
    },
    {
        "Pincode":281202,
        "District":"MATHURA",
        "StateName":"UTTAR PRADESH"
    },
    {
        "Pincode":206253,
        "District":"ETAWAH",
        "StateName":"UTTAR PRADESH"
    },
    {
        "Pincode":243407,
        "District":"NAWABGANJ",
        "StateName":"UTTAR PRADESH"
    },
    {
        "Pincode":247341,
        "District":"NAKUR",
        "StateName":"UTTAR PRADESH"
    },
    {
        "Pincode":276404,
        "District":"AZAMGARH",
        "StateName":"UTTAR PRADESH"
    },
    {
        "Pincode":281501,
        "District":"GOVARDHAN",
        "StateName":"UTTAR PRADESH"
    },
    {
        "Pincode":226102,
        "District":"MALIHABAD",
        "StateName":"UTTAR PRADESH"
    },
    {
        "Pincode":212106,
        "District":"KORAON",
        "StateName":"UTTAR PRADESH"
    },
    {
        "Pincode":227805,
        "District":"MUSAFIRKHANA",
        "StateName":"UTTAR PRADESH"
    },
    {
        "Pincode":271503,
        "District":"COLONELGANJ",
        "StateName":"UTTAR PRADESH"
    },
    {
        "Pincode":202130,
        "District":"ATRAULI",
        "StateName":"UTTAR PRADESH"
    },
    {
        "Pincode":284404,
        "District":"MAHRAUNI",
        "StateName":"UTTAR PRADESH"
    },
    {
        "Pincode":250626,
        "District":"BAGHPAT",
        "StateName":"UTTAR PRADESH"
    },
    {
        "Pincode":271803,
        "District":"NANPARA",
        "StateName":"UTTAR PRADESH"
    },
    {
        "Pincode":244402,
        "District":"MORADABAD",
        "StateName":"UTTAR PRADESH"
    },
    {
        "Pincode":206129,
        "District":"AURAIYA",
        "StateName":"UTTAR PRADESH"
    },
    {
        "Pincode":201008,
        "District":"DHAULANA",
        "StateName":"UTTAR PRADESH"
    },
    {
        "Pincode":227813,
        "District":"MUSAFIRKHANA",
        "StateName":"UTTAR PRADESH"
    },
    {
        "Pincode":251307,
        "District":"MUZZAFARNAGAR",
        "StateName":"UTTAR PRADESH"
    },
    {
        "Pincode":285204,
        "District":"BHOGNIPUR",
        "StateName":"UTTAR PRADESH"
    },
    {
        "Pincode":246745,
        "District":"KANTH",
        "StateName":"UTTAR PRADESH"
    },
    {
        "Pincode":243722,
        "District":"BABRALA",
        "StateName":"UTTAR PRADESH"
    },
    {
        "Pincode":244922,
        "District":"SHAHBAD-RAMPUR",
        "StateName":"UTTAR PRADESH"
    },
    {
        "Pincode":244241,
        "District":"HASANPUR",
        "StateName":"UTTAR PRADESH"
    },
    {
        "Pincode":202135,
        "District":"KHAIR",
        "StateName":"UTTAR PRADESH"
    },
    {
        "Pincode":244242,
        "District":"HASANPUR",
        "StateName":"UTTAR PRADESH"
    },
    {
        "Pincode":207241,
        "District":"KASGANJ",
        "StateName":"UTTAR PRADESH"
    },
    {
        "Pincode":210208,
        "District":"KALYANPUR",
        "StateName":"UTTAR PRADESH"
    },
    {
        "Pincode":283111,
        "District":"FATEHABAD",
        "StateName":"UTTAR PRADESH"
    },
    {
        "Pincode":276406,
        "District":"AZAMGARH",
        "StateName":"UTTAR PRADESH"
    },
    {
        "Pincode":201302,
        "District":"NOIDA",
        "StateName":"UTTAR PRADESH"
    },
    {
        "Pincode":272301,
        "District":"TANDA",
        "StateName":"UTTAR PRADESH"
    },
    {
        "Pincode":281005,
        "District":"MATHURA",
        "StateName":"UTTAR PRADESH"
    },
    {
        "Pincode":224204,
        "District":"BIKAPUR",
        "StateName":"UTTAR PRADESH"
    },
    {
        "Pincode":274303,
        "District":"PADRAUNA",
        "StateName":"UTTAR PRADESH"
    },
    {
        "Pincode":283126,
        "District":"SADABAD",
        "StateName":"UTTAR PRADESH"
    },
    {
        "Pincode":274306,
        "District":"PADRAUNA",
        "StateName":"UTTAR PRADESH"
    },
    {
        "Pincode":271870,
        "District":"BAHRAICH",
        "StateName":"UTTAR PRADESH"
    },
    {
        "Pincode":205247,
        "District":"MAINPURI",
        "StateName":"UTTAR PRADESH"
    },
    {
        "Pincode":247774,
        "District":"SHAMLI",
        "StateName":"UTTAR PRADESH"
    },
    {
        "Pincode":209115,
        "District":"BHOGNIPUR",
        "StateName":"UTTAR PRADESH"
    },
    {
        "Pincode":203203,
        "District":"JEWAR",
        "StateName":"UTTAR PRADESH"
    },
    {
        "Pincode":209214,
        "District":"GHATAMPUR",
        "StateName":"UTTAR PRADESH"
    },
    {
        "Pincode":275202,
        "District":"MARDAH",
        "StateName":"UTTAR PRADESH"
    },
    {
        "Pincode":272163,
        "District":"HARAIYA",
        "StateName":"UTTAR PRADESH"
    },
    {
        "Pincode":206252,
        "District":"BIDHUNA",
        "StateName":"UTTAR PRADESH"
    },
    {
        "Pincode":271821,
        "District":"PAYAGPUR",
        "StateName":"UTTAR PRADESH"
    },
    {
        "Pincode":244413,
        "District":"BILARI",
        "StateName":"UTTAR PRADESH"
    },
    {
        "Pincode":284303,
        "District":"MOTH",
        "StateName":"UTTAR PRADESH"
    },
    {
        "Pincode":230202,
        "District":"KUNDA",
        "StateName":"UTTAR PRADESH"
    },
    {
        "Pincode":231307,
        "District":"MIRZAPUR",
        "StateName":"UTTAR PRADESH"
    },
    {
        "Pincode":251318,
        "District":"MUZZAFARNAGAR",
        "StateName":"UTTAR PRADESH"
    },
    {
        "Pincode":202145,
        "District":"IGLAS",
        "StateName":"UTTAR PRADESH"
    },
    {
        "Pincode":273305,
        "District":"NAUTANWA",
        "StateName":"UTTAR PRADESH"
    },
    {
        "Pincode":273005,
        "District":"GORAKHPUR",
        "StateName":"UTTAR PRADESH"
    },
    {
        "Pincode":283152,
        "District":"JASRANA",
        "StateName":"UTTAR PRADESH"
    },
    {
        "Pincode":250615,
        "District":"BAGHPAT",
        "StateName":"UTTAR PRADESH"
    },
    {
        "Pincode":212622,
        "District":"KHAGA",
        "StateName":"UTTAR PRADESH"
    },
    {
        "Pincode":250005,
        "District":"MEERUT",
        "StateName":"UTTAR PRADESH"
    },
    {
        "Pincode":202129,
        "District":"ATRAULI",
        "StateName":"UTTAR PRADESH"
    },
    {
        "Pincode":209401,
        "District":"GHATAMPUR",
        "StateName":"UTTAR PRADESH"
    },
    {
        "Pincode":244927,
        "District":"RAMPUR",
        "StateName":"UTTAR PRADESH"
    },
    {
        "Pincode":212214,
        "District":"MANJHANPUR",
        "StateName":"UTTAR PRADESH"
    },
    {
        "Pincode":250501,
        "District":"MEERUT",
        "StateName":"UTTAR PRADESH"
    },
    {
        "Pincode":244401,
        "District":"THAKURDWARA",
        "StateName":"UTTAR PRADESH"
    },
    {
        "Pincode":205265,
        "District":"MAINPURI",
        "StateName":"UTTAR PRADESH"
    },
    {
        "Pincode":243123,
        "District":"FARIDPUR",
        "StateName":"UTTAR PRADESH"
    },
    {
        "Pincode":250502,
        "District":"SARDHANA",
        "StateName":"UTTAR PRADESH"
    },
    {
        "Pincode":251316,
        "District":"MUZZAFARNAGAR",
        "StateName":"UTTAR PRADESH"
    },
    {
        "Pincode":203396,
        "District":"DIBAI",
        "StateName":"UTTAR PRADESH"
    },
    {
        "Pincode":202121,
        "District":"SIKANDRA RAO",
        "StateName":"UTTAR PRADESH"
    },
    {
        "Pincode":281003,
        "District":"MATHURA",
        "StateName":"UTTAR PRADESH"
    },
    {
        "Pincode":283102,
        "District":"KIRAULI",
        "StateName":"UTTAR PRADESH"
    },
    {
        "Pincode":247340,
        "District":"NAKUR",
        "StateName":"UTTAR PRADESH"
    },
    {
        "Pincode":203405,
        "District":"SIYANA",
        "StateName":"UTTAR PRADESH"
    },
    {
        "Pincode":231223,
        "District":"BEEJPUR",
        "StateName":"UTTAR PRADESH"
    },
    {
        "Pincode":243203,
        "District":"BAHERI",
        "StateName":"UTTAR PRADESH"
    },
    {
        "Pincode":283136,
        "District":"JASRANA",
        "StateName":"UTTAR PRADESH"
    },
    {
        "Pincode":261201,
        "District":"BISWAN",
        "StateName":"UTTAR PRADESH"
    },
    {
        "Pincode":228159,
        "District":"SULTANPUR",
        "StateName":"UTTAR PRADESH"
    },
    {
        "Pincode":221311,
        "District":"CHUNAR",
        "StateName":"UTTAR PRADESH"
    },
    {
        "Pincode":283201,
        "District":"TUNDLA",
        "StateName":"UTTAR PRADESH"
    },
    {
        "Pincode":244410,
        "District":"CHANDAUSI",
        "StateName":"UTTAR PRADESH"
    },
    {
        "Pincode":251202,
        "District":"MUZZAFARNAGAR",
        "StateName":"UTTAR PRADESH"
    },
    {
        "Pincode":261501,
        "District":"LAKHIMPUR",
        "StateName":"UTTAR PRADESH"
    },
    {
        "Pincode":262406,
        "District":"NAWABGANJ",
        "StateName":"UTTAR PRADESH"
    },
    {
        "Pincode":225301,
        "District":"BARA BANKI",
        "StateName":"UTTAR PRADESH"
    },
    {
        "Pincode":232104,
        "District":"CHANDAULI",
        "StateName":"UTTAR PRADESH"
    },
    {
        "Pincode":250002,
        "District":"MEERUT",
        "StateName":"UTTAR PRADESH"
    },
    {
        "Pincode":221005,
        "District":"VARANASI",
        "StateName":"UTTAR PRADESH"
    },
    {
        "Pincode":247775,
        "District":"SHAMLI",
        "StateName":"UTTAR PRADESH"
    },
    {
        "Pincode":251309,
        "District":"SARDHANA",
        "StateName":"UTTAR PRADESH"
    },
    {
        "Pincode":243638,
        "District":"SAHASWAN",
        "StateName":"UTTAR PRADESH"
    },
    {
        "Pincode":251306,
        "District":"MUZZAFARNAGAR",
        "StateName":"UTTAR PRADESH"
    },
    {
        "Pincode":273002,
        "District":"GORAKHPUR",
        "StateName":"UTTAR PRADESH"
    },
    {
        "Pincode":281122,
        "District":"FARAH",
        "StateName":"UTTAR PRADESH"
    },
    {
        "Pincode":203132,
        "District":"KHURJA",
        "StateName":"UTTAR PRADESH"
    },
    {
        "Pincode":251305,
        "District":"SHAMLI",
        "StateName":"UTTAR PRADESH"
    },
    {
        "Pincode":244104,
        "District":"MORADABAD",
        "StateName":"UTTAR PRADESH"
    },
    {
        "Pincode":212656,
        "District":"KHAGA",
        "StateName":"UTTAR PRADESH"
    },
    {
        "Pincode":244601,
        "District":"THAKURDWARA",
        "StateName":"UTTAR PRADESH"
    },
    {
        "Pincode":250601,
        "District":"BAGHPAT",
        "StateName":"UTTAR PRADESH"
    },
    {
        "Pincode":271902,
        "District":"KAISARGANJ",
        "StateName":"UTTAR PRADESH"
    },
    {
        "Pincode":244225,
        "District":"GAJRAULA",
        "StateName":"UTTAR PRADESH"
    },
    {
        "Pincode":231226,
        "District":"DUDHINAGAR",
        "StateName":"UTTAR PRADESH"
    },
    {
        "Pincode":221309,
        "District":"HANDIA",
        "StateName":"UTTAR PRADESH"
    },
    {
        "Pincode":233300,
        "District":"MARDAH",
        "StateName":"UTTAR PRADESH"
    },
    {
        "Pincode":209733,
        "District":"KANNAUJ",
        "StateName":"UTTAR PRADESH"
    },
    {
        "Pincode":244236,
        "District":"GAJRAULA",
        "StateName":"UTTAR PRADESH"
    },
    {
        "Pincode":283123,
        "District":"BAH",
        "StateName":"UTTAR PRADESH"
    },
    {
        "Pincode":212402,
        "District":"PHOOLPUR",
        "StateName":"UTTAR PRADESH"
    },
    {
        "Pincode":207125,
        "District":"KASGANJ",
        "StateName":"UTTAR PRADESH"
    },
    {
        "Pincode":284205,
        "District":"MAURANIPUR",
        "StateName":"UTTAR PRADESH"
    },
    {
        "Pincode":261208,
        "District":"LAHARPUR",
        "StateName":"UTTAR PRADESH"
    },
    {
        "Pincode":271206,
        "District":"TULSIPUR",
        "StateName":"UTTAR PRADESH"
    },
    {
        "Pincode":283101,
        "District":"KIRAULI",
        "StateName":"UTTAR PRADESH"
    },
    {
        "Pincode":202140,
        "District":"KHAIR",
        "StateName":"UTTAR PRADESH"
    },
    {
        "Pincode":271124,
        "District":"MANKAPUR",
        "StateName":"UTTAR PRADESH"
    },
    {
        "Pincode":210126,
        "District":"HAMIRPUR",
        "StateName":"UTTAR PRADESH"
    },
    {
        "Pincode":281205,
        "District":"KHAIR",
        "StateName":"UTTAR PRADESH"
    },
    {
        "Pincode":276123,
        "District":"LALGANJ-AZAMGARH",
        "StateName":"UTTAR PRADESH"
    },
    {
        "Pincode":226104,
        "District":"MALIHABAD",
        "StateName":"UTTAR PRADESH"
    },
    {
        "Pincode":250341,
        "District":"SARDHANA",
        "StateName":"UTTAR PRADESH"
    },
    {
        "Pincode":243637,
        "District":"BUDAUN",
        "StateName":"UTTAR PRADESH"
    },
    {
        "Pincode":271123,
        "District":"GONDA",
        "StateName":"UTTAR PRADESH"
    },
    {
        "Pincode":201006,
        "District":"GHAZIABAD",
        "StateName":"UTTAR PRADESH"
    },
    {
        "Pincode":283122,
        "District":"KIRAULI",
        "StateName":"UTTAR PRADESH"
    },
    {
        "Pincode":284204,
        "District":"MAURANIPUR",
        "StateName":"UTTAR PRADESH"
    },
    {
        "Pincode":274201,
        "District":"DEORIA",
        "StateName":"UTTAR PRADESH"
    },
    {
        "Pincode":210206,
        "District":"CHITRAKOOT",
        "StateName":"UTTAR PRADESH"
    },
    {
        "Pincode":247773,
        "District":"SHAMLI",
        "StateName":"UTTAR PRADESH"
    },
    {
        "Pincode":244411,
        "District":"BILARI",
        "StateName":"UTTAR PRADESH"
    },
    {
        "Pincode":283110,
        "District":"KIRAULI",
        "StateName":"UTTAR PRADESH"
    },
    {
        "Pincode":209825,
        "District":"UNNAO",
        "StateName":"UTTAR PRADESH"
    },
    {
        "Pincode":251308,
        "District":"MUZZAFARNAGAR",
        "StateName":"UTTAR PRADESH"
    },
    {
        "Pincode":271875,
        "District":"BAHRAICH",
        "StateName":"UTTAR PRADESH"
    },
    {
        "Pincode":281203,
        "District":"CHHATA",
        "StateName":"UTTAR PRADESH"
    },
    {
        "Pincode":247120,
        "District":"BEHAT",
        "StateName":"UTTAR PRADESH"
    },
    {
        "Pincode":209311,
        "District":"AKBARPUR-KANPUR DEHAT",
        "StateName":"UTTAR PRADESH"
    },
    {
        "Pincode":250622,
        "District":"BARAUT",
        "StateName":"UTTAR PRADESH"
    },
    {
        "Pincode":225124,
        "District":"HAIDARGARH",
        "StateName":"UTTAR PRADESH"
    },
    {
        "Pincode":243303,
        "District":"SHAHBAD-RAMPUR",
        "StateName":"UTTAR PRADESH"
    },
    {
        "Pincode":281403,
        "District":"CHHATA",
        "StateName":"UTTAR PRADESH"
    },
    {
        "Pincode":277207,
        "District":"SIKANDERPUR",
        "StateName":"UTTAR PRADESH"
    },
    {
        "Pincode":251315,
        "District":"MAWANA",
        "StateName":"UTTAR PRADESH"
    },
    {
        "Pincode":202138,
        "District":"KHAIR",
        "StateName":"UTTAR PRADESH"
    },
    {
        "Pincode":245201,
        "District":"HAPUR",
        "StateName":"UTTAR PRADESH"
    },
    {
        "Pincode":230401,
        "District":"PRATAPGARH-UP",
        "StateName":"UTTAR PRADESH"
    },
    {
        "Pincode":273201,
        "District":"CHAURI CHAURA",
        "StateName":"UTTAR PRADESH"
    },
    {
        "Pincode":202125,
        "District":"ALIGARH",
        "StateName":"UTTAR PRADESH"
    },
    {
        "Pincode":281305,
        "District":"MATHURA",
        "StateName":"UTTAR PRADESH"
    },
    {
        "Pincode":261403,
        "District":"MISRIKAH",
        "StateName":"UTTAR PRADESH"
    },
    {
        "Pincode":202131,
        "District":"ATRAULI",
        "StateName":"UTTAR PRADESH"
    },
    {
        "Pincode":274304,
        "District":"PADRAUNA",
        "StateName":"UTTAR PRADESH"
    },
    {
        "Pincode":284301,
        "District":"MOTH",
        "StateName":"UTTAR PRADESH"
    },
    {
        "Pincode":281401,
        "District":"CHHATA",
        "StateName":"UTTAR PRADESH"
    },
    {
        "Pincode":202132,
        "District":"KHURJA",
        "StateName":"UTTAR PRADESH"
    },
    {
        "Pincode":245206,
        "District":"HAPUR",
        "StateName":"UTTAR PRADESH"
    },
    {
        "Pincode":229306,
        "District":"RAI BAREILY",
        "StateName":"UTTAR PRADESH"
    },
    {
        "Pincode":281502,
        "District":"GOVARDHAN",
        "StateName":"UTTAR PRADESH"
    },
    {
        "Pincode":212202,
        "District":"CHAIL",
        "StateName":"UTTAR PRADESH"
    },
    {
        "Pincode":221308,
        "District":"HANDIA",
        "StateName":"UTTAR PRADESH"
    },
    {
        "Pincode":244303,
        "District":"SAMBHAL",
        "StateName":"UTTAR PRADESH"
    },
    {
        "Pincode":221716,
        "District":"BELTHARA ROAD",
        "StateName":"UTTAR PRADESH"
    },
    {
        "Pincode":212302,
        "District":"MEJA ROAD",
        "StateName":"UTTAR PRADESH"
    },
    {
        "Pincode":205262,
        "District":"MAINPURI",
        "StateName":"UTTAR PRADESH"
    },
    {
        "Pincode":261303,
        "District":"SIDHAULI",
        "StateName":"UTTAR PRADESH"
    },
    {
        "Pincode":284405,
        "District":"MAHRAUNI",
        "StateName":"UTTAR PRADESH"
    },
    {
        "Pincode":272190,
        "District":"DOMARIYAGANJ",
        "StateName":"UTTAR PRADESH"
    },
    {
        "Pincode":244255,
        "District":"HASANPUR",
        "StateName":"UTTAR PRADESH"
    },
    {
        "Pincode":212307,
        "District":"MEJA ROAD",
        "StateName":"UTTAR PRADESH"
    },
    {
        "Pincode":212641,
        "District":"MANJHANPUR",
        "StateName":"UTTAR PRADESH"
    },
    {
        "Pincode":281204,
        "District":"MATHURA",
        "StateName":"UTTAR PRADESH"
    },
    {
        "Pincode":233230,
        "District":"MARDAH",
        "StateName":"UTTAR PRADESH"
    },
    {
        "Pincode":207246,
        "District":"PATIYALI",
        "StateName":"UTTAR PRADESH"
    },
    {
        "Pincode":203209,
        "District":"JEWAR",
        "StateName":"UTTAR PRADESH"
    },
    {
        "Pincode":244301,
        "District":"SAMBHAL",
        "StateName":"UTTAR PRADESH"
    },
    {
        "Pincode":202122,
        "District":"ALIGARH",
        "StateName":"UTTAR PRADESH"
    },
    {
        "Pincode":226203,
        "District":"ITAUNJA",
        "StateName":"UTTAR PRADESH"
    },
    {
        "Pincode":202133,
        "District":"ATRAULI",
        "StateName":"UTTAR PRADESH"
    },
    {
        "Pincode":221403,
        "District":"BHADOHI",
        "StateName":"UTTAR PRADESH"
    },
    {
        "Pincode":245101,
        "District":"HAPUR",
        "StateName":"UTTAR PRADESH"
    },
    {
        "Pincode":250342,
        "District":"SARDHANA",
        "StateName":"UTTAR PRADESH"
    },
    {
        "Pincode":281404,
        "District":"CHHATA",
        "StateName":"UTTAR PRADESH"
    },
    {
        "Pincode":230402,
        "District":"PRATAPGARH-UP",
        "StateName":"UTTAR PRADESH"
    },
    {
        "Pincode":231212,
        "District":"DUDHINAGAR",
        "StateName":"UTTAR PRADESH"
    },
    {
        "Pincode":206245,
        "District":"ETAWAH",
        "StateName":"UTTAR PRADESH"
    },
    {
        "Pincode":261505,
        "District":"MOHAMMADI",
        "StateName":"UTTAR PRADESH"
    },
    {
        "Pincode":222143,
        "District":"MACHHALI SHAHAR",
        "StateName":"UTTAR PRADESH"
    },
    {
        "Pincode":228161,
        "District":"KADIPUR",
        "StateName":"UTTAR PRADESH"
    },
    {
        "Pincode":221208,
        "District":"PINDRA",
        "StateName":"UTTAR PRADESH"
    },
    {
        "Pincode":245304,
        "District":"HAPUR",
        "StateName":"UTTAR PRADESH"
    },
    {
        "Pincode":204213,
        "District":"HATHRAS",
        "StateName":"UTTAR PRADESH"
    },
    {
        "Pincode":251314,
        "District":"MUZZAFARNAGAR",
        "StateName":"UTTAR PRADESH"
    },
    {
        "Pincode":203202,
        "District":"GREATER NOIDA",
        "StateName":"UTTAR PRADESH"
    },
    {
        "Pincode":271830,
        "District":"NANPARA",
        "StateName":"UTTAR PRADESH"
    },
    {
        "Pincode":250104,
        "District":"MAWANA",
        "StateName":"UTTAR PRADESH"
    },
    {
        "Pincode":250606,
        "District":"BAGHPAT",
        "StateName":"UTTAR PRADESH"
    },
    {
        "Pincode":207302,
        "District":"JALESAR",
        "StateName":"UTTAR PRADESH"
    },
    {
        "Pincode":262723,
        "District":"DHAURAHARA",
        "StateName":"UTTAR PRADESH"
    },
    {
        "Pincode":250205,
        "District":"MODINAGAR",
        "StateName":"UTTAR PRADESH"
    },
    {
        "Pincode":276131,
        "District":"AZAMGARH",
        "StateName":"UTTAR PRADESH"
    },
    {
        "Pincode":274403,
        "District":"KUSHINAGAR",
        "StateName":"UTTAR PRADESH"
    },
    {
        "Pincode":251311,
        "District":"MUZZAFARNAGAR",
        "StateName":"UTTAR PRADESH"
    },
    {
        "Pincode":206123,
        "District":"KISHNI",
        "StateName":"UTTAR PRADESH"
    },
    {
        "Pincode":283121,
        "District":"KHAIRAGARH-UP",
        "StateName":"UTTAR PRADESH"
    },
    {
        "Pincode":242301,
        "District":"TILHAR",
        "StateName":"UTTAR PRADESH"
    },
    {
        "Pincode":281307,
        "District":"SADABAD",
        "StateName":"UTTAR PRADESH"
    },
    {
        "Pincode":243723,
        "District":"CHANDAUSI",
        "StateName":"UTTAR PRADESH"
    },
    {
        "Pincode":244924,
        "District":"SUAR",
        "StateName":"UTTAR PRADESH"
    },
    {
        "Pincode":209111,
        "District":"BHOGNIPUR",
        "StateName":"UTTAR PRADESH"
    },
    {
        "Pincode":247671,
        "District":"ROORKEE",
        "StateName":"UTTAR PRADESH"
    },
    {
        "Pincode":228131,
        "District":"KADIPUR",
        "StateName":"UTTAR PRADESH"
    },
    {
        "Pincode":283125,
        "District":"SHAMSABAD",
        "StateName":"UTTAR PRADESH"
    },
    {
        "Pincode":212217,
        "District":"MANJHANPUR",
        "StateName":"UTTAR PRADESH"
    },
    {
        "Pincode":210209,
        "District":"KALYANPUR",
        "StateName":"UTTAR PRADESH"
    },
    {
        "Pincode":212305,
        "District":"MEJA ROAD",
        "StateName":"UTTAR PRADESH"
    },
    {
        "Pincode":282009,
        "District":"AGRA",
        "StateName":"UTTAR PRADESH"
    },
    {
        "Pincode":250344,
        "District":"SARDHANA",
        "StateName":"UTTAR PRADESH"
    },
    {
        "Pincode":202280,
        "District":"ATRAULI",
        "StateName":"UTTAR PRADESH"
    },
    {
        "Pincode":222162,
        "District":"MACHHALI SHAHAR",
        "StateName":"UTTAR PRADESH"
    },
    {
        "Pincode":246736,
        "District":"CHANDPUR",
        "StateName":"UTTAR PRADESH"
    },
    {
        "Pincode":230129,
        "District":"PRATAPGARH-UP",
        "StateName":"UTTAR PRADESH"
    },
    {
        "Pincode":273401,
        "District":"BANSGAON",
        "StateName":"UTTAR PRADESH"
    },
    {
        "Pincode":221112,
        "District":"VARANASI",
        "StateName":"UTTAR PRADESH"
    },
    {
        "Pincode":231312,
        "District":"MIRZAPUR",
        "StateName":"UTTAR PRADESH"
    },
    {
        "Pincode":281301,
        "District":"FARAH",
        "StateName":"UTTAR PRADESH"
    },
    {
        "Pincode":210201,
        "District":"ATARRA",
        "StateName":"UTTAR PRADESH"
    },
    {
        "Pincode":271882,
        "District":"NANPARA",
        "StateName":"UTTAR PRADESH"
    },
    {
        "Pincode":281302,
        "District":"SADABAD",
        "StateName":"UTTAR PRADESH"
    },
    {
        "Pincode":251310,
        "District":"MUZZAFARNAGAR",
        "StateName":"UTTAR PRADESH"
    },
    {
        "Pincode":221310,
        "District":"HANDIA",
        "StateName":"UTTAR PRADESH"
    },
    {
        "Pincode":209302,
        "District":"RASULABAD",
        "StateName":"UTTAR PRADESH"
    },
    {
        "Pincode":248125,
        "District":"DEHRADUN",
        "StateName":"UTTARAKHAND"
    },
    {
        "Pincode":247656,
        "District":"ROORKEE",
        "StateName":"UTTARAKHAND"
    },
    {
        "Pincode":247670,
        "District":"ROORKEE",
        "StateName":"UTTARAKHAND"
    },
    {
        "Pincode":263152,
        "District":"Rudrapur",
        "StateName":"UTTARAKHAND"
    },
    {
        "Pincode":247663,
        "District":"ROORKEE",
        "StateName":"UTTARAKHAND"
    },
    {
        "Pincode":247664,
        "District":"ROORKEE",
        "StateName":"UTTARAKHAND"
    },
    {
        "Pincode":247668,
        "District":"ROORKEE",
        "StateName":"UTTARAKHAND"
    },
    {
        "Pincode":733143,
        "District":"RAIGANJ",
        "StateName":"WEST BENGAL"
    },
    {
        "Pincode":732210,
        "District":"FARAKKA",
        "StateName":"WEST BENGAL"
    },
    {
        "Pincode":731216,
        "District":"MAYURESWAR",
        "StateName":"WEST BENGAL"
    },
    {
        "Pincode":742140,
        "District":"KANDI",
        "StateName":"WEST BENGAL"
    },
    {
        "Pincode":736172,
        "District":"MATHABHANGA",
        "StateName":"WEST BENGAL"
    },
    {
        "Pincode":713125,
        "District":"BHATAR",
        "StateName":"WEST BENGAL"
    },
    {
        "Pincode":713129,
        "District":"NANOOR",
        "StateName":"WEST BENGAL"
    },
    {
        "Pincode":736158,
        "District":"MATHABHANGA",
        "StateName":"WEST BENGAL"
    },
    {
        "Pincode":743370,
        "District":"GOSABA",
        "StateName":"WEST BENGAL"
    },
    {
        "Pincode":736165,
        "District":"COOCH BEHAR",
        "StateName":"WEST BENGAL"
    },
    {
        "Pincode":743357,
        "District":"KAKDWIP",
        "StateName":"WEST BENGAL"
    },
    {
        "Pincode":743354,
        "District":"JOYNAGAR",
        "StateName":"WEST BENGAL"
    },
    {
        "Pincode":743337,
        "District":"SURJAPUR",
        "StateName":"WEST BENGAL"
    },
    {
        "Pincode":733207,
        "District":"ISLAMPUR",
        "StateName":"WEST BENGAL"
    },
    {
        "Pincode":743338,
        "District":"JOYNAGAR",
        "StateName":"WEST BENGAL"
    },
    {
        "Pincode":743329,
        "District":"CANNING-WB",
        "StateName":"WEST BENGAL"
    },
    {
        "Pincode":723213,
        "District":"KOTHSILA",
        "StateName":"WEST BENGAL"
    },
    {
        "Pincode":732206,
        "District":"MALDA",
        "StateName":"WEST BENGAL"
    },
    {
        "Pincode":743355,
        "District":"SURJAPUR",
        "StateName":"WEST BENGAL"
    },
    {
        "Pincode":700044,
        "District":"KOLKATA",
        "StateName":"WEST BENGAL"
    },
    {
        "Pincode":743375,
        "District":"DIAMOND HARBOUR",
        "StateName":"WEST BENGAL"
    },
    {
        "Pincode":734427,
        "District":"NAXALBARI",
        "StateName":"WEST BENGAL"
    },
    {
        "Pincode":733128,
        "District":"HARIRAMPUR",
        "StateName":"WEST BENGAL"
    },
    {
        "Pincode":743376,
        "District":"CANNING-WB",
        "StateName":"WEST BENGAL"
    },
    {
        "Pincode":742135,
        "District":"LALGOLA",
        "StateName":"WEST BENGAL"
    },
    {
        "Pincode":743446,
        "District":"HINGALGANJ",
        "StateName":"WEST BENGAL"
    },
    {
        "Pincode":743349,
        "District":"JOYNAGAR",
        "StateName":"WEST BENGAL"
    },
    {
        "Pincode":743234,
        "District":"BARASAT",
        "StateName":"WEST BENGAL"
    },
    {
        "Pincode":743609,
        "District":"SURJAPUR",
        "StateName":"WEST BENGAL"
    },
    {
        "Pincode":711403,
        "District":"BALLY",
        "StateName":"WEST BENGAL"
    },
    {
        "Pincode":713336,
        "District":"ASANSOL",
        "StateName":"WEST BENGAL"
    },
    {
        "Pincode":700011,
        "District":"KOLKATA",
        "StateName":"WEST BENGAL"
    },
    {
        "Pincode":700100,
        "District":"KOLKATA",
        "StateName":"WEST BENGAL"
    }
]